[{"area_code":"TLB","name":"England","value":38.91},{"area_code":"TLC","name":"North East","value":32.37},{"area_code":"TLD","name":"North West","value":34.58},{"area_code":"TLE","name":"Yorkshire and The Humber","value":32.59},{"area_code":"TLF","name":"East Midlands","value":33.22},{"area_code":"TLG","name":"West Midlands","value":33.35},{"area_code":"TLH","name":"East of England","value":35.9},{"area_code":"TLI","name":"London","value":51.08},{"area_code":"TLJ","name":"South East (England)","value":42.23},{"area_code":"TLK","name":"South West (England)","value":34.48},{"area_code":"TLL","name":"Wales","value":32.19},{"area_code":"TLM","name":"Scotland","value":36.95},{"area_code":"TLN","name":"Northern Ireland","value":32.96},{"area_code":"TLC","name":"North East","value":null},{"area_code":"TLD","name":"North West","value":null},{"area_code":"TLE","name":"Yorkshire and The Humber","value":null},{"area_code":"TLF","name":"East Midlands","value":null},{"area_code":"TLG","name":"West Midlands","value":null},{"area_code":"TLH","name":"East of England","value":null},{"area_code":"TLI","name":"London","value":null},{"area_code":"TLJ","name":"South East (England)","value":null},{"area_code":"TLK","name":"South West (England)","value":null},{"area_code":"TLL","name":"Wales","value":null},{"area_code":"TLM","name":"Scotland","value":null},{"area_code":"TLN","name":"Northern Ireland","value":null},{"area_code":"TLC","name":"North East","value":null},{"area_code":"TLD","name":"North West","value":null},{"area_code":"TLE","name":"Yorkshire and The Humber","value":null},{"area_code":"TLF","name":"East Midlands","value":null},{"area_code":"TLG","name":"West Midlands","value":null},{"area_code":"TLH","name":"East of England","value":null},{"area_code":"TLI","name":"London","value":null},{"area_code":"TLJ","name":"South East (England)","value":null},{"area_code":"TLK","name":"South West (England)","value":null},{"area_code":"TLL","name":"Wales","value":null},{"area_code":"TLM","name":"Scotland","value":null},{"area_code":"TLN","name":"Northern Ireland","value":null},{"area_code":"TLC","name":"North East","value":null},{"area_code":"TLD","name":"North West","value":null},{"area_code":"TLE","name":"Yorkshire and The Humber","value":null},{"area_code":"TLF","name":"East Midlands","value":null},{"area_code":"TLG","name":"West Midlands","value":null},{"area_code":"TLH","name":"East of England","value":null},{"area_code":"TLI","name":"London","value":null},{"area_code":"TLJ","name":"South East (England)","value":null},{"area_code":"TLK","name":"South West (England)","value":null},{"area_code":"TLL","name":"Wales","value":null},{"area_code":"TLM","name":"Scotland","value":null},{"area_code":"TLN","name":"Northern Ireland","value":null},{"area_code":"TLB","name":"England","value":null},{"area_code":"TLC","name":"North East","value":null},{"area_code":"TLD","name":"North West","value":null},{"area_code":"TLE","name":"Yorkshire and The Humber","value":null},{"area_code":"TLF","name":"East Midlands","value":null},{"area_code":"TLG","name":"West Midlands","value":null},{"area_code":"TLH","name":"East of England","value":null},{"area_code":"TLI","name":"London","value":null},{"area_code":"TLJ","name":"South East (England)","value":null},{"area_code":"TLK","name":"South West (England)","value":null},{"area_code":"TLL","name":"Wales","value":null},{"area_code":"TLM","name":"Scotland","value":null},{"area_code":"TLN","name":"Northern Ireland","value":null},{"area_code":"TLC","name":"North East","value":null},{"area_code":"TLD","name":"North West","value":null},{"area_code":"TLE","name":"Yorkshire and The Humber","value":null},{"area_code":"TLF","name":"East Midlands","value":null},{"area_code":"TLG","name":"West Midlands","value":null},{"area_code":"TLH","name":"East of England","value":null},{"area_code":"TLI","name":"London","value":null},{"area_code":"TLJ","name":"South East (England)","value":null},{"area_code":"TLK","name":"South West (England)","value":null},{"area_code":"TLL","name":"Wales","value":null},{"area_code":"TLM","name":"Scotland","value":null},{"area_code":"TLN","name":"Northern Ireland","value":null},{"area_code":"TLC","name":"North East","value":null},{"area_code":"TLD","name":"North West","value":null},{"area_code":"TLE","name":"Yorkshire and The Humber","value":null},{"area_code":"TLF","name":"East Midlands","value":null},{"area_code":"TLG","name":"West Midlands","value":null},{"area_code":"TLH","name":"East of England","value":null},{"area_code":"TLI","name":"London","value":null},{"area_code":"TLJ","name":"South East (England)","value":null},{"area_code":"TLK","name":"South West (England)","value":null},{"area_code":"TLL","name":"Wales","value":null},{"area_code":"TLM","name":"Scotland","value":null},{"area_code":"TLN","name":"Northern Ireland","value":null},{"area_code":"TLC","name":"North East","value":null},{"area_code":"TLD","name":"North West","value":null},{"area_code":"TLE","name":"Yorkshire and The Humber","value":null},{"area_code":"TLF","name":"East Midlands","value":null},{"area_code":"TLG","name":"West Midlands","value":null},{"area_code":"TLH","name":"East of England","value":null},{"area_code":"TLI","name":"London","value":null},{"area_code":"TLJ","name":"South East (England)","value":null},{"area_code":"TLK","name":"South West (England)","value":null},{"area_code":"TLL","name":"Wales","value":null},{"area_code":"TLM","name":"Scotland","value":null},{"area_code":"TLN","name":"Northern Ireland","value":null},{"area_code":"TLB","name":"England","value":null},{"area_code":"TLC","name":"North East","value":null},{"area_code":"TLD","name":"North West","value":null},{"area_code":"TLE","name":"Yorkshire and The Humber","value":null},{"area_code":"TLF","name":"East Midlands","value":null},{"area_code":"TLG","name":"West Midlands","value":null},{"area_code":"TLH","name":"East of England","value":null},{"area_code":"TLI","name":"London","value":null},{"area_code":"TLJ","name":"South East (England)","value":null},{"area_code":"TLK","name":"South West (England)","value":null},{"area_code":"TLL","name":"Wales","value":null},{"area_code":"TLM","name":"Scotland","value":null},{"area_code":"TLN","name":"Northern Ireland","value":null},{"area_code":"TLC","name":"North East","value":null},{"area_code":"TLD","name":"North West","value":null},{"area_code":"TLE","name":"Yorkshire and The Humber","value":null},{"area_code":"TLF","name":"East Midlands","value":null},{"area_code":"TLG","name":"West Midlands","value":null},{"area_code":"TLH","name":"East of England","value":null},{"area_code":"TLI","name":"London","value":null},{"area_code":"TLJ","name":"South East (England)","value":null},{"area_code":"TLK","name":"South West (England)","value":null},{"area_code":"TLL","name":"Wales","value":null},{"area_code":"TLM","name":"Scotland","value":null},{"area_code":"TLN","name":"Northern Ireland","value":null},{"area_code":"TLC","name":"North East","value":null},{"area_code":"TLD","name":"North West","value":null},{"area_code":"TLE","name":"Yorkshire and The Humber","value":null},{"area_code":"TLF","name":"East Midlands","value":null},{"area_code":"TLG","name":"West Midlands","value":null},{"area_code":"TLH","name":"East of England","value":null},{"area_code":"TLI","name":"London","value":null},{"area_code":"TLJ","name":"South East (England)","value":null},{"area_code":"TLK","name":"South West (England)","value":null},{"area_code":"TLL","name":"Wales","value":null},{"area_code":"TLM","name":"Scotland","value":null},{"area_code":"TLN","name":"Northern Ireland","value":null},{"area_code":"TLC","name":"North East","value":null},{"area_code":"TLD","name":"North West","value":null},{"area_code":"TLE","name":"Yorkshire and The Humber","value":null},{"area_code":"TLF","name":"East Midlands","value":null},{"area_code":"TLG","name":"West Midlands","value":null},{"area_code":"TLH","name":"East of England","value":null},{"area_code":"TLI","name":"London","value":null},{"area_code":"TLJ","name":"South East (England)","value":null},{"area_code":"TLK","name":"South West (England)","value":null},{"area_code":"TLL","name":"Wales","value":null},{"area_code":"TLM","name":"Scotland","value":null},{"area_code":"TLN","name":"Northern Ireland","value":null},{"area_code":"TLB","name":"England","value":null},{"area_code":"TLC","name":"North East","value":null},{"area_code":"TLD","name":"North West","value":null},{"area_code":"TLE","name":"Yorkshire and The Humber","value":null},{"area_code":"TLF","name":"East Midlands","value":null},{"area_code":"TLG","name":"West Midlands","value":null},{"area_code":"TLH","name":"East of England","value":null},{"area_code":"TLI","name":"London","value":null},{"area_code":"TLJ","name":"South East (England)","value":null},{"area_code":"TLK","name":"South West (England)","value":null},{"area_code":"TLL","name":"Wales","value":null},{"area_code":"TLM","name":"Scotland","value":null},{"area_code":"TLN","name":"Northern Ireland","value":null},{"area_code":"TLC","name":"North East","value":null},{"area_code":"TLD","name":"North West","value":null},{"area_code":"TLE","name":"Yorkshire and The Humber","value":null},{"area_code":"TLF","name":"East Midlands","value":null},{"area_code":"TLG","name":"West Midlands","value":null},{"area_code":"TLH","name":"East of England","value":null},{"area_code":"TLI","name":"London","value":null},{"area_code":"TLJ","name":"South East (England)","value":null},{"area_code":"TLK","name":"South West (England)","value":null},{"area_code":"TLL","name":"Wales","value":null},{"area_code":"TLM","name":"Scotland","value":null},{"area_code":"TLN","name":"Northern Ireland","value":null},{"area_code":"TLC","name":"North East","value":null},{"area_code":"TLD","name":"North West","value":null},{"area_code":"TLE","name":"Yorkshire and The Humber","value":null},{"area_code":"TLF","name":"East Midlands","value":null},{"area_code":"TLG","name":"West Midlands","value":null},{"area_code":"TLH","name":"East of England","value":null},{"area_code":"TLI","name":"London","value":null},{"area_code":"TLJ","name":"South East (England)","value":null},{"area_code":"TLK","name":"South West (England)","value":null},{"area_code":"TLL","name":"Wales","value":null},{"area_code":"TLM","name":"Scotland","value":null},{"area_code":"TLN","name":"Northern Ireland","value":null},{"area_code":"TLC","name":"North East","value":null},{"area_code":"TLD","name":"North West","value":null},{"area_code":"TLE","name":"Yorkshire and The Humber","value":null},{"area_code":"TLF","name":"East Midlands","value":null},{"area_code":"TLG","name":"West Midlands","value":null},{"area_code":"TLH","name":"East of England","value":null},{"area_code":"TLI","name":"London","value":null},{"area_code":"TLJ","name":"South East (England)","value":null},{"area_code":"TLK","name":"South West (England)","value":null},{"area_code":"TLL","name":"Wales","value":null},{"area_code":"TLM","name":"Scotland","value":null},{"area_code":"TLN","name":"Northern Ireland","value":null},{"area_code":"TLB","name":"England","value":null},{"area_code":"TLC","name":"North East","value":null},{"area_code":"TLD","name":"North West","value":null},{"area_code":"TLE","name":"Yorkshire and The Humber","value":null},{"area_code":"TLF","name":"East Midlands","value":null},{"area_code":"TLG","name":"West Midlands","value":null},{"area_code":"TLH","name":"East of England","value":null},{"area_code":"TLI","name":"London","value":null},{"area_code":"TLJ","name":"South East (England)","value":null},{"area_code":"TLK","name":"South West (England)","value":null},{"area_code":"TLL","name":"Wales","value":null},{"area_code":"TLM","name":"Scotland","value":null},{"area_code":"TLN","name":"Northern Ireland","value":null},{"area_code":"TLC","name":"North East","value":null},{"area_code":"TLD","name":"North West","value":null},{"area_code":"TLE","name":"Yorkshire and The Humber","value":null},{"area_code":"TLF","name":"East Midlands","value":null},{"area_code":"TLG","name":"West Midlands","value":null},{"area_code":"TLH","name":"East of England","value":null},{"area_code":"TLI","name":"London","value":null},{"area_code":"TLJ","name":"South East (England)","value":null},{"area_code":"TLK","name":"South West (England)","value":null},{"area_code":"TLL","name":"Wales","value":null},{"area_code":"TLM","name":"Scotland","value":null},{"area_code":"TLN","name":"Northern Ireland","value":null},{"area_code":"TLC","name":"North East","value":null},{"area_code":"TLD","name":"North West","value":null},{"area_code":"TLE","name":"Yorkshire and The Humber","value":null},{"area_code":"TLF","name":"East Midlands","value":null},{"area_code":"TLG","name":"West Midlands","value":null},{"area_code":"TLH","name":"East of England","value":null},{"area_code":"TLI","name":"London","value":null},{"area_code":"TLJ","name":"South East (England)","value":null},{"area_code":"TLK","name":"South West (England)","value":null},{"area_code":"TLL","name":"Wales","value":null},{"area_code":"TLM","name":"Scotland","value":null},{"area_code":"TLN","name":"Northern Ireland","value":null},{"area_code":"TLC","name":"North East","value":null},{"area_code":"TLD","name":"North West","value":null},{"area_code":"TLE","name":"Yorkshire and The Humber","value":null},{"area_code":"TLF","name":"East Midlands","value":null},{"area_code":"TLG","name":"West Midlands","value":null},{"area_code":"TLH","name":"East of England","value":null},{"area_code":"TLI","name":"London","value":null},{"area_code":"TLJ","name":"South East (England)","value":null},{"area_code":"TLK","name":"South West (England)","value":null},{"area_code":"TLL","name":"Wales","value":null},{"area_code":"TLM","name":"Scotland","value":null},{"area_code":"TLN","name":"Northern Ireland","value":null},{"area_code":"TLB","name":"England","value":null},{"area_code":"TLC","name":"North East","value":null},{"area_code":"TLD","name":"North West","value":null},{"area_code":"TLE","name":"Yorkshire and The Humber","value":null},{"area_code":"TLF","name":"East Midlands","value":null},{"area_code":"TLG","name":"West Midlands","value":null},{"area_code":"TLH","name":"East of England","value":null},{"area_code":"TLI","name":"London","value":null},{"area_code":"TLJ","name":"South East (England)","value":null},{"area_code":"TLK","name":"South West (England)","value":null},{"area_code":"TLL","name":"Wales","value":null},{"area_code":"TLM","name":"Scotland","value":null},{"area_code":"TLN","name":"Northern Ireland","value":null},{"area_code":"TLC","name":"North East","value":null},{"area_code":"TLD","name":"North West","value":null},{"area_code":"TLE","name":"Yorkshire and The Humber","value":null},{"area_code":"TLF","name":"East Midlands","value":null},{"area_code":"TLG","name":"West Midlands","value":null},{"area_code":"TLH","name":"East of England","value":null},{"area_code":"TLI","name":"London","value":null},{"area_code":"TLJ","name":"South East (England)","value":null},{"area_code":"TLK","name":"South West (England)","value":null},{"area_code":"TLL","name":"Wales","value":null},{"area_code":"TLM","name":"Scotland","value":null},{"area_code":"TLN","name":"Northern Ireland","value":null},{"area_code":"TLC","name":"North East","value":null},{"area_code":"TLD","name":"North West","value":null},{"area_code":"TLE","name":"Yorkshire and The Humber","value":null},{"area_code":"TLF","name":"East Midlands","value":null},{"area_code":"TLG","name":"West Midlands","value":null},{"area_code":"TLH","name":"East of England","value":null},{"area_code":"TLI","name":"London","value":null},{"area_code":"TLJ","name":"South East (England)","value":null},{"area_code":"TLK","name":"South West (England)","value":null},{"area_code":"TLL","name":"Wales","value":null},{"area_code":"TLM","name":"Scotland","value":null},{"area_code":"TLN","name":"Northern Ireland","value":null},{"area_code":"TLC","name":"North East","value":null},{"area_code":"TLD","name":"North West","value":null},{"area_code":"TLE","name":"Yorkshire and The Humber","value":null},{"area_code":"TLF","name":"East Midlands","value":null},{"area_code":"TLG","name":"West Midlands","value":null},{"area_code":"TLH","name":"East of England","value":null},{"area_code":"TLI","name":"London","value":null},{"area_code":"TLJ","name":"South East (England)","value":null},{"area_code":"TLK","name":"South West (England)","value":null},{"area_code":"TLL","name":"Wales","value":null},{"area_code":"TLM","name":"Scotland","value":null},{"area_code":"TLN","name":"Northern Ireland","value":null},{"area_code":"TLB","name":"England","value":null},{"area_code":"TLC","name":"North East","value":null},{"area_code":"TLD","name":"North West","value":null},{"area_code":"TLE","name":"Yorkshire and The Humber","value":null},{"area_code":"TLF","name":"East Midlands","value":null},{"area_code":"TLG","name":"West Midlands","value":null},{"area_code":"TLH","name":"East of England","value":null},{"area_code":"TLI","name":"London","value":null},{"area_code":"TLJ","name":"South East (England)","value":null},{"area_code":"TLK","name":"South West (England)","value":null},{"area_code":"TLL","name":"Wales","value":null},{"area_code":"TLM","name":"Scotland","value":null},{"area_code":"TLN","name":"Northern Ireland","value":null},{"area_code":"TLC","name":"North East","value":18630},{"area_code":"TLD","name":"North West","value":56944},{"area_code":"TLE","name":"Yorkshire and The Humber","value":29267},{"area_code":"TLF","name":"East Midlands","value":30247},{"area_code":"TLG","name":"West Midlands","value":40519},{"area_code":"TLH","name":"East of England","value":51057},{"area_code":"TLI","name":"London","value":190048},{"area_code":"TLJ","name":"South East (England)","value":87620},{"area_code":"TLK","name":"South West (England)","value":34900},{"area_code":"TLL","name":"Wales","value":23773},{"area_code":"TLM","name":"Scotland","value":50109},{"area_code":"TLN","name":"Northern Ireland","value":13245},{"area_code":"TLC","name":"North East","value":null},{"area_code":"TLD","name":"North West","value":null},{"area_code":"TLE","name":"Yorkshire and The Humber","value":null},{"area_code":"TLF","name":"East Midlands","value":null},{"area_code":"TLG","name":"West Midlands","value":null},{"area_code":"TLH","name":"East of England","value":null},{"area_code":"TLI","name":"London","value":null},{"area_code":"TLJ","name":"South East (England)","value":null},{"area_code":"TLK","name":"South West (England)","value":null},{"area_code":"TLL","name":"Wales","value":null},{"area_code":"TLM","name":"Scotland","value":null},{"area_code":"TLN","name":"Northern Ireland","value":null},{"area_code":"TLC","name":"North East","value":null},{"area_code":"TLD","name":"North West","value":null},{"area_code":"TLE","name":"Yorkshire and The Humber","value":null},{"area_code":"TLF","name":"East Midlands","value":null},{"area_code":"TLG","name":"West Midlands","value":null},{"area_code":"TLH","name":"East of England","value":null},{"area_code":"TLI","name":"London","value":null},{"area_code":"TLJ","name":"South East (England)","value":null},{"area_code":"TLK","name":"South West (England)","value":null},{"area_code":"TLL","name":"Wales","value":null},{"area_code":"TLM","name":"Scotland","value":null},{"area_code":"TLN","name":"Northern Ireland","value":null},{"area_code":"TLB","name":"England","value":null},{"area_code":"TLC","name":"North East","value":null},{"area_code":"TLD","name":"North West","value":null},{"area_code":"TLE","name":"Yorkshire and The Humber","value":null},{"area_code":"TLF","name":"East Midlands","value":null},{"area_code":"TLG","name":"West Midlands","value":null},{"area_code":"TLH","name":"East of England","value":null},{"area_code":"TLI","name":"London","value":null},{"area_code":"TLJ","name":"South East (England)","value":null},{"area_code":"TLK","name":"South West (England)","value":null},{"area_code":"TLL","name":"Wales","value":null},{"area_code":"TLM","name":"Scotland","value":null},{"area_code":"TLN","name":"Northern Ireland","value":null},{"area_code":"TLC","name":"North East","value":null},{"area_code":"TLD","name":"North West","value":null},{"area_code":"TLE","name":"Yorkshire and The Humber","value":null},{"area_code":"TLF","name":"East Midlands","value":null},{"area_code":"TLG","name":"West Midlands","value":null},{"area_code":"TLH","name":"East of England","value":null},{"area_code":"TLI","name":"London","value":null},{"area_code":"TLJ","name":"South East (England)","value":null},{"area_code":"TLK","name":"South West (England)","value":null},{"area_code":"TLL","name":"Wales","value":null},{"area_code":"TLM","name":"Scotland","value":null},{"area_code":"TLN","name":"Northern Ireland","value":null},{"area_code":"TLC","name":"North East","value":27934},{"area_code":"TLD","name":"North West","value":122856},{"area_code":"TLE","name":"Yorkshire and The Humber","value":80922},{"area_code":"TLF","name":"East Midlands","value":56699},{"area_code":"TLG","name":"West Midlands","value":91384},{"area_code":"TLH","name":"East of England","value":84770},{"area_code":"TLI","name":"London","value":907427},{"area_code":"TLJ","name":"South East (England)","value":340538},{"area_code":"TLK","name":"South West (England)","value":83533},{"area_code":"TLL","name":"Wales","value":41900},{"area_code":"TLM","name":"Scotland","value":57650},{"area_code":"TLN","name":"Northern Ireland","value":19153},{"area_code":"TLC","name":"North East","value":null},{"area_code":"TLD","name":"North West","value":null},{"area_code":"TLE","name":"Yorkshire and The Humber","value":null},{"area_code":"TLF","name":"East Midlands","value":null},{"area_code":"TLG","name":"West Midlands","value":null},{"area_code":"TLH","name":"East of England","value":null},{"area_code":"TLI","name":"London","value":null},{"area_code":"TLJ","name":"South East (England)","value":null},{"area_code":"TLK","name":"South West (England)","value":null},{"area_code":"TLL","name":"Wales","value":null},{"area_code":"TLM","name":"Scotland","value":null},{"area_code":"TLN","name":"Northern Ireland","value":null},{"area_code":"TLB","name":"England","value":null},{"area_code":"TLC","name":"North East","value":null},{"area_code":"TLD","name":"North West","value":null},{"area_code":"TLE","name":"Yorkshire and The Humber","value":null},{"area_code":"TLF","name":"East Midlands","value":null},{"area_code":"TLG","name":"West Midlands","value":null},{"area_code":"TLH","name":"East of England","value":null},{"area_code":"TLI","name":"London","value":null},{"area_code":"TLJ","name":"South East (England)","value":null},{"area_code":"TLK","name":"South West (England)","value":null},{"area_code":"TLL","name":"Wales","value":null},{"area_code":"TLM","name":"Scotland","value":null},{"area_code":"TLN","name":"Northern Ireland","value":null},{"area_code":"TLC","name":"North East","value":null},{"area_code":"TLD","name":"North West","value":null},{"area_code":"TLE","name":"Yorkshire and The Humber","value":null},{"area_code":"TLF","name":"East Midlands","value":null},{"area_code":"TLG","name":"West Midlands","value":null},{"area_code":"TLH","name":"East of England","value":null},{"area_code":"TLI","name":"London","value":null},{"area_code":"TLJ","name":"South East (England)","value":null},{"area_code":"TLK","name":"South West (England)","value":null},{"area_code":"TLL","name":"Wales","value":null},{"area_code":"TLM","name":"Scotland","value":null},{"area_code":"TLN","name":"Northern Ireland","value":null},{"area_code":"TLC","name":"North East","value":null},{"area_code":"TLD","name":"North West","value":null},{"area_code":"TLE","name":"Yorkshire and The Humber","value":null},{"area_code":"TLF","name":"East Midlands","value":null},{"area_code":"TLG","name":"West Midlands","value":null},{"area_code":"TLH","name":"East of England","value":null},{"area_code":"TLI","name":"London","value":null},{"area_code":"TLJ","name":"South East (England)","value":null},{"area_code":"TLK","name":"South West (England)","value":null},{"area_code":"TLL","name":"Wales","value":null},{"area_code":"TLM","name":"Scotland","value":null},{"area_code":"TLN","name":"Northern Ireland","value":null},{"area_code":"TLC","name":"North East","value":26878},{"area_code":"TLD","name":"North West","value":92135},{"area_code":"TLE","name":"Yorkshire and The Humber","value":61364},{"area_code":"TLF","name":"East Midlands","value":37563},{"area_code":"TLG","name":"West Midlands","value":107051},{"area_code":"TLH","name":"East of England","value":98721},{"area_code":"TLI","name":"London","value":805325},{"area_code":"TLJ","name":"South East (England)","value":348021},{"area_code":"TLK","name":"South West (England)","value":68092},{"area_code":"TLL","name":"Wales","value":19582},{"area_code":"TLM","name":"Scotland","value":91250},{"area_code":"TLN","name":"Northern Ireland","value":10736},{"area_code":"TLB","name":"England","value":null},{"area_code":"TLC","name":"North East","value":null},{"area_code":"TLD","name":"North West","value":null},{"area_code":"TLE","name":"Yorkshire and The Humber","value":null},{"area_code":"TLF","name":"East Midlands","value":null},{"area_code":"TLG","name":"West Midlands","value":null},{"area_code":"TLH","name":"East of England","value":null},{"area_code":"TLI","name":"London","value":null},{"area_code":"TLJ","name":"South East (England)","value":null},{"area_code":"TLK","name":"South West (England)","value":null},{"area_code":"TLL","name":"Wales","value":null},{"area_code":"TLM","name":"Scotland","value":null},{"area_code":"TLN","name":"Northern Ireland","value":null},{"area_code":"TLC","name":"North East","value":null},{"area_code":"TLD","name":"North West","value":null},{"area_code":"TLE","name":"Yorkshire and The Humber","value":null},{"area_code":"TLF","name":"East Midlands","value":null},{"area_code":"TLG","name":"West Midlands","value":null},{"area_code":"TLH","name":"East of England","value":null},{"area_code":"TLI","name":"London","value":null},{"area_code":"TLJ","name":"South East (England)","value":null},{"area_code":"TLK","name":"South West (England)","value":null},{"area_code":"TLL","name":"Wales","value":null},{"area_code":"TLM","name":"Scotland","value":null},{"area_code":"TLN","name":"Northern Ireland","value":null},{"area_code":"TLC","name":"North East","value":null},{"area_code":"TLD","name":"North West","value":null},{"area_code":"TLE","name":"Yorkshire and The Humber","value":null},{"area_code":"TLF","name":"East Midlands","value":null},{"area_code":"TLG","name":"West Midlands","value":null},{"area_code":"TLH","name":"East of England","value":null},{"area_code":"TLI","name":"London","value":null},{"area_code":"TLJ","name":"South East (England)","value":null},{"area_code":"TLK","name":"South West (England)","value":null},{"area_code":"TLL","name":"Wales","value":null},{"area_code":"TLM","name":"Scotland","value":null},{"area_code":"TLN","name":"Northern Ireland","value":null},{"area_code":"TLC","name":"North East","value":null},{"area_code":"TLD","name":"North West","value":null},{"area_code":"TLE","name":"Yorkshire and The Humber","value":null},{"area_code":"TLF","name":"East Midlands","value":null},{"area_code":"TLG","name":"West Midlands","value":null},{"area_code":"TLH","name":"East of England","value":null},{"area_code":"TLI","name":"London","value":null},{"area_code":"TLJ","name":"South East (England)","value":null},{"area_code":"TLK","name":"South West (England)","value":null},{"area_code":"TLL","name":"Wales","value":null},{"area_code":"TLM","name":"Scotland","value":null},{"area_code":"TLN","name":"Northern Ireland","value":null},{"area_code":"TLB","name":"England","value":null},{"area_code":"TLC","name":"North East","value":null},{"area_code":"TLD","name":"North West","value":null},{"area_code":"TLE","name":"Yorkshire and The Humber","value":null},{"area_code":"TLF","name":"East Midlands","value":null},{"area_code":"TLG","name":"West Midlands","value":null},{"area_code":"TLH","name":"East of England","value":null},{"area_code":"TLI","name":"London","value":null},{"area_code":"TLJ","name":"South East (England)","value":null},{"area_code":"TLK","name":"South West (England)","value":null},{"area_code":"TLL","name":"Wales","value":null},{"area_code":"TLM","name":"Scotland","value":null},{"area_code":"TLN","name":"Northern Ireland","value":null},{"area_code":"TLC","name":"North East","value":null},{"area_code":"TLD","name":"North West","value":null},{"area_code":"TLE","name":"Yorkshire and The Humber","value":null},{"area_code":"TLF","name":"East Midlands","value":null},{"area_code":"TLG","name":"West Midlands","value":null},{"area_code":"TLH","name":"East of England","value":null},{"area_code":"TLI","name":"London","value":null},{"area_code":"TLJ","name":"South East (England)","value":null},{"area_code":"TLK","name":"South West (England)","value":null},{"area_code":"TLL","name":"Wales","value":null},{"area_code":"TLM","name":"Scotland","value":null},{"area_code":"TLN","name":"Northern Ireland","value":null},{"area_code":"TLC","name":"North East","value":null},{"area_code":"TLD","name":"North West","value":null},{"area_code":"TLE","name":"Yorkshire and The Humber","value":null},{"area_code":"TLF","name":"East Midlands","value":null},{"area_code":"TLG","name":"West Midlands","value":null},{"area_code":"TLH","name":"East of England","value":null},{"area_code":"TLI","name":"London","value":null},{"area_code":"TLJ","name":"South East (England)","value":null},{"area_code":"TLK","name":"South West (England)","value":null},{"area_code":"TLL","name":"Wales","value":null},{"area_code":"TLM","name":"Scotland","value":null},{"area_code":"TLN","name":"Northern Ireland","value":null},{"area_code":"TLC","name":"North East","value":null},{"area_code":"TLD","name":"North West","value":null},{"area_code":"TLE","name":"Yorkshire and The Humber","value":null},{"area_code":"TLF","name":"East Midlands","value":null},{"area_code":"TLG","name":"West Midlands","value":null},{"area_code":"TLH","name":"East of England","value":null},{"area_code":"TLI","name":"London","value":null},{"area_code":"TLJ","name":"South East (England)","value":null},{"area_code":"TLK","name":"South West (England)","value":null},{"area_code":"TLL","name":"Wales","value":null},{"area_code":"TLM","name":"Scotland","value":null},{"area_code":"TLN","name":"Northern Ireland","value":null},{"area_code":"TLB","name":"England","value":null},{"area_code":"TLC","name":"North East","value":null},{"area_code":"TLD","name":"North West","value":null},{"area_code":"TLE","name":"Yorkshire and The Humber","value":null},{"area_code":"TLF","name":"East Midlands","value":null},{"area_code":"TLG","name":"West Midlands","value":null},{"area_code":"TLH","name":"East of England","value":null},{"area_code":"TLI","name":"London","value":null},{"area_code":"TLJ","name":"South East (England)","value":null},{"area_code":"TLK","name":"South West (England)","value":null},{"area_code":"TLL","name":"Wales","value":null},{"area_code":"TLM","name":"Scotland","value":null},{"area_code":"TLN","name":"Northern Ireland","value":null},{"area_code":"TLC","name":"North East","value":null},{"area_code":"TLD","name":"North West","value":null},{"area_code":"TLE","name":"Yorkshire and The Humber","value":null},{"area_code":"TLF","name":"East Midlands","value":null},{"area_code":"TLG","name":"West Midlands","value":null},{"area_code":"TLH","name":"East of England","value":null},{"area_code":"TLI","name":"London","value":null},{"area_code":"TLJ","name":"South East (England)","value":null},{"area_code":"TLK","name":"South West (England)","value":null},{"area_code":"TLL","name":"Wales","value":null},{"area_code":"TLM","name":"Scotland","value":null},{"area_code":"TLN","name":"Northern Ireland","value":null},{"area_code":"TLC","name":"North East","value":null},{"area_code":"TLD","name":"North West","value":null},{"area_code":"TLE","name":"Yorkshire and The Humber","value":null},{"area_code":"TLF","name":"East Midlands","value":null},{"area_code":"TLG","name":"West Midlands","value":null},{"area_code":"TLH","name":"East of England","value":null},{"area_code":"TLI","name":"London","value":null},{"area_code":"TLJ","name":"South East (England)","value":null},{"area_code":"TLK","name":"South West (England)","value":null},{"area_code":"TLL","name":"Wales","value":null},{"area_code":"TLM","name":"Scotland","value":null},{"area_code":"TLN","name":"Northern Ireland","value":null},{"area_code":"TLC","name":"North East","value":null},{"area_code":"TLD","name":"North West","value":null},{"area_code":"TLE","name":"Yorkshire and The Humber","value":null},{"area_code":"TLF","name":"East Midlands","value":null},{"area_code":"TLG","name":"West Midlands","value":null},{"area_code":"TLH","name":"East of England","value":null},{"area_code":"TLI","name":"London","value":null},{"area_code":"TLJ","name":"South East (England)","value":null},{"area_code":"TLK","name":"South West (England)","value":null},{"area_code":"TLL","name":"Wales","value":null},{"area_code":"TLM","name":"Scotland","value":null},{"area_code":"TLN","name":"Northern Ireland","value":null},{"area_code":"TLB","name":"England","value":null},{"area_code":"TLC","name":"North East","value":null},{"area_code":"TLD","name":"North West","value":null},{"area_code":"TLE","name":"Yorkshire and The Humber","value":null},{"area_code":"TLF","name":"East Midlands","value":null},{"area_code":"TLG","name":"West Midlands","value":null},{"area_code":"TLH","name":"East of England","value":null},{"area_code":"TLI","name":"London","value":null},{"area_code":"TLJ","name":"South East (England)","value":null},{"area_code":"TLK","name":"South West (England)","value":null},{"area_code":"TLL","name":"Wales","value":null},{"area_code":"TLM","name":"Scotland","value":null},{"area_code":"TLN","name":"Northern Ireland","value":null},{"area_code":"TLC","name":"North East","value":null},{"area_code":"TLD","name":"North West","value":null},{"area_code":"TLE","name":"Yorkshire and The Humber","value":null},{"area_code":"TLF","name":"East Midlands","value":null},{"area_code":"TLG","name":"West Midlands","value":null},{"area_code":"TLH","name":"East of England","value":null},{"area_code":"TLI","name":"London","value":null},{"area_code":"TLJ","name":"South East (England)","value":null},{"area_code":"TLK","name":"South West (England)","value":null},{"area_code":"TLL","name":"Wales","value":null},{"area_code":"TLM","name":"Scotland","value":null},{"area_code":"TLN","name":"Northern Ireland","value":null},{"area_code":"TLC","name":"North East","value":null},{"area_code":"TLD","name":"North West","value":null},{"area_code":"TLE","name":"Yorkshire and The Humber","value":null},{"area_code":"TLF","name":"East Midlands","value":null},{"area_code":"TLG","name":"West Midlands","value":null},{"area_code":"TLH","name":"East of England","value":null},{"area_code":"TLI","name":"London","value":null},{"area_code":"TLJ","name":"South East (England)","value":null},{"area_code":"TLK","name":"South West (England)","value":null},{"area_code":"TLL","name":"Wales","value":null},{"area_code":"TLM","name":"Scotland","value":null},{"area_code":"TLN","name":"Northern Ireland","value":null},{"area_code":"TLC","name":"North East","value":null},{"area_code":"TLD","name":"North West","value":null},{"area_code":"TLE","name":"Yorkshire and The Humber","value":null},{"area_code":"TLF","name":"East Midlands","value":null},{"area_code":"TLG","name":"West Midlands","value":null},{"area_code":"TLH","name":"East of England","value":null},{"area_code":"TLI","name":"London","value":null},{"area_code":"TLJ","name":"South East (England)","value":null},{"area_code":"TLK","name":"South West (England)","value":null},{"area_code":"TLL","name":"Wales","value":null},{"area_code":"TLM","name":"Scotland","value":null},{"area_code":"TLN","name":"Northern Ireland","value":null},{"area_code":"TLB","name":"England","value":null},{"area_code":"TLC","name":"North East","value":null},{"area_code":"TLD","name":"North West","value":null},{"area_code":"TLE","name":"Yorkshire and The Humber","value":null},{"area_code":"TLF","name":"East Midlands","value":null},{"area_code":"TLG","name":"West Midlands","value":null},{"area_code":"TLH","name":"East of England","value":null},{"area_code":"TLI","name":"London","value":null},{"area_code":"TLJ","name":"South East (England)","value":null},{"area_code":"TLK","name":"South West (England)","value":null},{"area_code":"TLL","name":"Wales","value":null},{"area_code":"TLM","name":"Scotland","value":null},{"area_code":"TLN","name":"Northern Ireland","value":null},{"area_code":"TLC","name":"North East","value":null},{"area_code":"TLD","name":"North West","value":null},{"area_code":"TLE","name":"Yorkshire and The Humber","value":null},{"area_code":"TLF","name":"East Midlands","value":null},{"area_code":"TLG","name":"West Midlands","value":null},{"area_code":"TLH","name":"East of England","value":null},{"area_code":"TLI","name":"London","value":null},{"area_code":"TLJ","name":"South East (England)","value":null},{"area_code":"TLK","name":"South West (England)","value":null},{"area_code":"TLL","name":"Wales","value":null},{"area_code":"TLM","name":"Scotland","value":null},{"area_code":"TLN","name":"Northern Ireland","value":null},{"area_code":"TLC","name":"North East","value":null},{"area_code":"TLD","name":"North West","value":null},{"area_code":"TLE","name":"Yorkshire and The Humber","value":null},{"area_code":"TLF","name":"East Midlands","value":null},{"area_code":"TLG","name":"West Midlands","value":null},{"area_code":"TLH","name":"East of England","value":null},{"area_code":"TLI","name":"London","value":null},{"area_code":"TLJ","name":"South East (England)","value":null},{"area_code":"TLK","name":"South West (England)","value":null},{"area_code":"TLL","name":"Wales","value":null},{"area_code":"TLM","name":"Scotland","value":null},{"area_code":"TLN","name":"Northern Ireland","value":null},{"area_code":"TLC","name":"North East","value":null},{"area_code":"TLD","name":"North West","value":null},{"area_code":"TLE","name":"Yorkshire and The Humber","value":null},{"area_code":"TLF","name":"East Midlands","value":null},{"area_code":"TLG","name":"West Midlands","value":null},{"area_code":"TLH","name":"East of England","value":null},{"area_code":"TLI","name":"London","value":null},{"area_code":"TLJ","name":"South East (England)","value":null},{"area_code":"TLK","name":"South West (England)","value":null},{"area_code":"TLL","name":"Wales","value":null},{"area_code":"TLM","name":"Scotland","value":null},{"area_code":"TLN","name":"Northern Ireland","value":null},{"area_code":"TLB","name":"England","value":null},{"area_code":"TLC","name":"North East","value":null},{"area_code":"TLD","name":"North West","value":null},{"area_code":"TLE","name":"Yorkshire and The Humber","value":null},{"area_code":"TLF","name":"East Midlands","value":null},{"area_code":"TLG","name":"West Midlands","value":null},{"area_code":"TLH","name":"East of England","value":null},{"area_code":"TLI","name":"London","value":null},{"area_code":"TLJ","name":"South East (England)","value":null},{"area_code":"TLK","name":"South West (England)","value":null},{"area_code":"TLL","name":"Wales","value":null},{"area_code":"TLM","name":"Scotland","value":null},{"area_code":"TLN","name":"Northern Ireland","value":null},{"area_code":"TLC","name":"North East","value":null},{"area_code":"TLD","name":"North West","value":null},{"area_code":"TLE","name":"Yorkshire and The Humber","value":null},{"area_code":"TLF","name":"East Midlands","value":null},{"area_code":"TLG","name":"West Midlands","value":null},{"area_code":"TLH","name":"East of England","value":null},{"area_code":"TLI","name":"London","value":null},{"area_code":"TLJ","name":"South East (England)","value":null},{"area_code":"TLK","name":"South West (England)","value":null},{"area_code":"TLL","name":"Wales","value":null},{"area_code":"TLM","name":"Scotland","value":null},{"area_code":"TLN","name":"Northern Ireland","value":null},{"area_code":"TLC","name":"North East","value":null},{"area_code":"TLD","name":"North West","value":null},{"area_code":"TLE","name":"Yorkshire and The Humber","value":null},{"area_code":"TLF","name":"East Midlands","value":null},{"area_code":"TLG","name":"West Midlands","value":null},{"area_code":"TLH","name":"East of England","value":null},{"area_code":"TLI","name":"London","value":null},{"area_code":"TLJ","name":"South East (England)","value":null},{"area_code":"TLK","name":"South West (England)","value":null},{"area_code":"TLL","name":"Wales","value":null},{"area_code":"TLM","name":"Scotland","value":null},{"area_code":"TLN","name":"Northern Ireland","value":null},{"area_code":"TLC","name":"North East","value":null},{"area_code":"TLD","name":"North West","value":null},{"area_code":"TLE","name":"Yorkshire and The Humber","value":null},{"area_code":"TLF","name":"East Midlands","value":null},{"area_code":"TLG","name":"West Midlands","value":null},{"area_code":"TLH","name":"East of England","value":null},{"area_code":"TLI","name":"London","value":null},{"area_code":"TLJ","name":"South East (England)","value":null},{"area_code":"TLK","name":"South West (England)","value":null},{"area_code":"TLL","name":"Wales","value":null},{"area_code":"TLM","name":"Scotland","value":null},{"area_code":"TLN","name":"Northern Ireland","value":null},{"area_code":"TLB","name":"England","value":null},{"area_code":"TLC","name":"North East","value":null},{"area_code":"TLD","name":"North West","value":null},{"area_code":"TLE","name":"Yorkshire and The Humber","value":null},{"area_code":"TLF","name":"East Midlands","value":null},{"area_code":"TLG","name":"West Midlands","value":null},{"area_code":"TLH","name":"East of England","value":null},{"area_code":"TLI","name":"London","value":null},{"area_code":"TLJ","name":"South East (England)","value":null},{"area_code":"TLK","name":"South West (England)","value":null},{"area_code":"TLL","name":"Wales","value":null},{"area_code":"TLM","name":"Scotland","value":null},{"area_code":"TLN","name":"Northern Ireland","value":null},{"area_code":"TLC","name":"North East","value":null},{"area_code":"TLD","name":"North West","value":null},{"area_code":"TLE","name":"Yorkshire and The Humber","value":null},{"area_code":"TLF","name":"East Midlands","value":null},{"area_code":"TLG","name":"West Midlands","value":null},{"area_code":"TLH","name":"East of England","value":null},{"area_code":"TLI","name":"London","value":null},{"area_code":"TLJ","name":"South East (England)","value":null},{"area_code":"TLK","name":"South West (England)","value":null},{"area_code":"TLL","name":"Wales","value":null},{"area_code":"TLM","name":"Scotland","value":null},{"area_code":"TLN","name":"Northern Ireland","value":null},{"area_code":"TLC","name":"North East","value":null},{"area_code":"TLD","name":"North West","value":null},{"area_code":"TLE","name":"Yorkshire and The Humber","value":null},{"area_code":"TLF","name":"East Midlands","value":null},{"area_code":"TLG","name":"West Midlands","value":null},{"area_code":"TLH","name":"East of England","value":null},{"area_code":"TLI","name":"London","value":null},{"area_code":"TLJ","name":"South East (England)","value":null},{"area_code":"TLK","name":"South West (England)","value":null},{"area_code":"TLL","name":"Wales","value":null},{"area_code":"TLM","name":"Scotland","value":null},{"area_code":"TLN","name":"Northern Ireland","value":null},{"area_code":"TLC","name":"North East","value":null},{"area_code":"TLD","name":"North West","value":null},{"area_code":"TLE","name":"Yorkshire and The Humber","value":null},{"area_code":"TLF","name":"East Midlands","value":null},{"area_code":"TLG","name":"West Midlands","value":null},{"area_code":"TLH","name":"East of England","value":null},{"area_code":"TLI","name":"London","value":null},{"area_code":"TLJ","name":"South East (England)","value":null},{"area_code":"TLK","name":"South West (England)","value":null},{"area_code":"TLL","name":"Wales","value":null},{"area_code":"TLM","name":"Scotland","value":null},{"area_code":"TLN","name":"Northern Ireland","value":null},{"area_code":"TLB","name":"England","value":null},{"area_code":"TLC","name":"North East","value":null},{"area_code":"TLD","name":"North West","value":null},{"area_code":"TLE","name":"Yorkshire and The Humber","value":null},{"area_code":"TLF","name":"East Midlands","value":null},{"area_code":"TLG","name":"West Midlands","value":null},{"area_code":"TLH","name":"East of England","value":null},{"area_code":"TLI","name":"London","value":null},{"area_code":"TLJ","name":"South East (England)","value":null},{"area_code":"TLK","name":"South West (England)","value":null},{"area_code":"TLL","name":"Wales","value":null},{"area_code":"TLM","name":"Scotland","value":null},{"area_code":"TLN","name":"Northern Ireland","value":null},{"area_code":"TLC","name":"North East","value":null},{"area_code":"TLD","name":"North West","value":null},{"area_code":"TLE","name":"Yorkshire and The Humber","value":null},{"area_code":"TLF","name":"East Midlands","value":null},{"area_code":"TLG","name":"West Midlands","value":null},{"area_code":"TLH","name":"East of England","value":null},{"area_code":"TLI","name":"London","value":null},{"area_code":"TLJ","name":"South East (England)","value":null},{"area_code":"TLK","name":"South West (England)","value":null},{"area_code":"TLL","name":"Wales","value":null},{"area_code":"TLM","name":"Scotland","value":null},{"area_code":"TLN","name":"Northern Ireland","value":null},{"area_code":"TLC","name":"North East","value":null},{"area_code":"TLD","name":"North West","value":null},{"area_code":"TLE","name":"Yorkshire and The Humber","value":null},{"area_code":"TLF","name":"East Midlands","value":null},{"area_code":"TLG","name":"West Midlands","value":null},{"area_code":"TLH","name":"East of England","value":null},{"area_code":"TLI","name":"London","value":null},{"area_code":"TLJ","name":"South East (England)","value":null},{"area_code":"TLK","name":"South West (England)","value":null},{"area_code":"TLL","name":"Wales","value":null},{"area_code":"TLM","name":"Scotland","value":null},{"area_code":"TLN","name":"Northern Ireland","value":null},{"area_code":"TLC","name":"North East","value":null},{"area_code":"TLD","name":"North West","value":null},{"area_code":"TLE","name":"Yorkshire and The Humber","value":null},{"area_code":"TLF","name":"East Midlands","value":null},{"area_code":"TLG","name":"West Midlands","value":null},{"area_code":"TLH","name":"East of England","value":null},{"area_code":"TLI","name":"London","value":null},{"area_code":"TLJ","name":"South East (England)","value":null},{"area_code":"TLK","name":"South West (England)","value":null},{"area_code":"TLL","name":"Wales","value":null},{"area_code":"TLM","name":"Scotland","value":null},{"area_code":"TLN","name":"Northern Ireland","value":null},{"area_code":"TLB","name":"England","value":null},{"area_code":"TLC","name":"North East","value":null},{"area_code":"TLD","name":"North West","value":null},{"area_code":"TLE","name":"Yorkshire and The Humber","value":null},{"area_code":"TLF","name":"East Midlands","value":null},{"area_code":"TLG","name":"West Midlands","value":null},{"area_code":"TLH","name":"East of England","value":null},{"area_code":"TLI","name":"London","value":null},{"area_code":"TLJ","name":"South East (England)","value":null},{"area_code":"TLK","name":"South West (England)","value":null},{"area_code":"TLL","name":"Wales","value":null},{"area_code":"TLM","name":"Scotland","value":null},{"area_code":"TLN","name":"Northern Ireland","value":null},{"area_code":"TLC","name":"North East","value":null},{"area_code":"TLD","name":"North West","value":null},{"area_code":"TLE","name":"Yorkshire and The Humber","value":null},{"area_code":"TLF","name":"East Midlands","value":null},{"area_code":"TLG","name":"West Midlands","value":null},{"area_code":"TLH","name":"East of England","value":null},{"area_code":"TLI","name":"London","value":null},{"area_code":"TLJ","name":"South East (England)","value":null},{"area_code":"TLK","name":"South West (England)","value":null},{"area_code":"TLL","name":"Wales","value":null},{"area_code":"TLM","name":"Scotland","value":null},{"area_code":"TLN","name":"Northern Ireland","value":null},{"area_code":"TLC","name":"North East","value":null},{"area_code":"TLD","name":"North West","value":null},{"area_code":"TLE","name":"Yorkshire and The Humber","value":null},{"area_code":"TLF","name":"East Midlands","value":null},{"area_code":"TLG","name":"West Midlands","value":null},{"area_code":"TLH","name":"East of England","value":null},{"area_code":"TLI","name":"London","value":null},{"area_code":"TLJ","name":"South East (England)","value":null},{"area_code":"TLK","name":"South West (England)","value":null},{"area_code":"TLL","name":"Wales","value":null},{"area_code":"TLM","name":"Scotland","value":null},{"area_code":"TLN","name":"Northern Ireland","value":null},{"area_code":"TLC","name":"North East","value":null},{"area_code":"TLD","name":"North West","value":null},{"area_code":"TLE","name":"Yorkshire and The Humber","value":null},{"area_code":"TLF","name":"East Midlands","value":null},{"area_code":"TLG","name":"West Midlands","value":null},{"area_code":"TLH","name":"East of England","value":null},{"area_code":"TLI","name":"London","value":null},{"area_code":"TLJ","name":"South East (England)","value":null},{"area_code":"TLK","name":"South West (England)","value":null},{"area_code":"TLL","name":"Wales","value":null},{"area_code":"TLM","name":"Scotland","value":null},{"area_code":"TLN","name":"Northern Ireland","value":null},{"area_code":"TLB","name":"England","value":null},{"area_code":"TLC","name":"North East","value":null},{"area_code":"TLD","name":"North West","value":null},{"area_code":"TLE","name":"Yorkshire and The Humber","value":null},{"area_code":"TLF","name":"East Midlands","value":null},{"area_code":"TLG","name":"West Midlands","value":null},{"area_code":"TLH","name":"East of England","value":null},{"area_code":"TLI","name":"London","value":null},{"area_code":"TLJ","name":"South East (England)","value":null},{"area_code":"TLK","name":"South West (England)","value":null},{"area_code":"TLL","name":"Wales","value":null},{"area_code":"TLM","name":"Scotland","value":null},{"area_code":"TLN","name":"Northern Ireland","value":null},{"area_code":"TLC","name":"North East","value":null},{"area_code":"TLD","name":"North West","value":null},{"area_code":"TLE","name":"Yorkshire and The Humber","value":null},{"area_code":"TLF","name":"East Midlands","value":null},{"area_code":"TLG","name":"West Midlands","value":null},{"area_code":"TLH","name":"East of England","value":null},{"area_code":"TLI","name":"London","value":null},{"area_code":"TLJ","name":"South East (England)","value":null},{"area_code":"TLK","name":"South West (England)","value":null},{"area_code":"TLL","name":"Wales","value":null},{"area_code":"TLM","name":"Scotland","value":null},{"area_code":"TLN","name":"Northern Ireland","value":null},{"area_code":"TLC","name":"North East","value":null},{"area_code":"TLD","name":"North West","value":null},{"area_code":"TLE","name":"Yorkshire and The Humber","value":null},{"area_code":"TLF","name":"East Midlands","value":null},{"area_code":"TLG","name":"West Midlands","value":null},{"area_code":"TLH","name":"East of England","value":null},{"area_code":"TLI","name":"London","value":null},{"area_code":"TLJ","name":"South East (England)","value":null},{"area_code":"TLK","name":"South West (England)","value":null},{"area_code":"TLL","name":"Wales","value":null},{"area_code":"TLM","name":"Scotland","value":null},{"area_code":"TLN","name":"Northern Ireland","value":null},{"area_code":"TLC","name":"North East","value":null},{"area_code":"TLD","name":"North West","value":null},{"area_code":"TLE","name":"Yorkshire and The Humber","value":null},{"area_code":"TLF","name":"East Midlands","value":null},{"area_code":"TLG","name":"West Midlands","value":null},{"area_code":"TLH","name":"East of England","value":null},{"area_code":"TLI","name":"London","value":null},{"area_code":"TLJ","name":"South East (England)","value":null},{"area_code":"TLK","name":"South West (England)","value":null},{"area_code":"TLL","name":"Wales","value":null},{"area_code":"TLM","name":"Scotland","value":null},{"area_code":"TLN","name":"Northern Ireland","value":null},{"area_code":"TLB","name":"England","value":null},{"area_code":"TLC","name":"North East","value":null},{"area_code":"TLD","name":"North West","value":null},{"area_code":"TLE","name":"Yorkshire and The Humber","value":null},{"area_code":"TLF","name":"East Midlands","value":null},{"area_code":"TLG","name":"West Midlands","value":null},{"area_code":"TLH","name":"East of England","value":null},{"area_code":"TLI","name":"London","value":null},{"area_code":"TLJ","name":"South East (England)","value":null},{"area_code":"TLK","name":"South West (England)","value":null},{"area_code":"TLL","name":"Wales","value":null},{"area_code":"TLM","name":"Scotland","value":null},{"area_code":"TLN","name":"Northern Ireland","value":null},{"area_code":"TLC","name":"North East","value":null},{"area_code":"TLD","name":"North West","value":null},{"area_code":"TLE","name":"Yorkshire and The Humber","value":null},{"area_code":"TLF","name":"East Midlands","value":null},{"area_code":"TLG","name":"West Midlands","value":null},{"area_code":"TLH","name":"East of England","value":null},{"area_code":"TLI","name":"London","value":null},{"area_code":"TLJ","name":"South East (England)","value":null},{"area_code":"TLK","name":"South West (England)","value":null},{"area_code":"TLL","name":"Wales","value":null},{"area_code":"TLM","name":"Scotland","value":null},{"area_code":"TLN","name":"Northern Ireland","value":null},{"area_code":"TLC","name":"North East","value":null},{"area_code":"TLD","name":"North West","value":null},{"area_code":"TLE","name":"Yorkshire and The Humber","value":null},{"area_code":"TLF","name":"East Midlands","value":null},{"area_code":"TLG","name":"West Midlands","value":null},{"area_code":"TLH","name":"East of England","value":null},{"area_code":"TLI","name":"London","value":null},{"area_code":"TLJ","name":"South East (England)","value":null},{"area_code":"TLK","name":"South West (England)","value":null},{"area_code":"TLL","name":"Wales","value":null},{"area_code":"TLM","name":"Scotland","value":null},{"area_code":"TLN","name":"Northern Ireland","value":null},{"area_code":"TLC","name":"North East","value":null},{"area_code":"TLD","name":"North West","value":null},{"area_code":"TLE","name":"Yorkshire and The Humber","value":null},{"area_code":"TLF","name":"East Midlands","value":null},{"area_code":"TLG","name":"West Midlands","value":null},{"area_code":"TLH","name":"East of England","value":null},{"area_code":"TLI","name":"London","value":null},{"area_code":"TLJ","name":"South East (England)","value":null},{"area_code":"TLK","name":"South West (England)","value":null},{"area_code":"TLL","name":"Wales","value":null},{"area_code":"TLM","name":"Scotland","value":null},{"area_code":"TLN","name":"Northern Ireland","value":null},{"area_code":"TLB","name":"England","value":null},{"area_code":"TLC","name":"North East","value":null},{"area_code":"TLD","name":"North West","value":null},{"area_code":"TLE","name":"Yorkshire and The Humber","value":null},{"area_code":"TLF","name":"East Midlands","value":null},{"area_code":"TLG","name":"West Midlands","value":null},{"area_code":"TLH","name":"East of England","value":null},{"area_code":"TLI","name":"London","value":null},{"area_code":"TLJ","name":"South East (England)","value":null},{"area_code":"TLK","name":"South West (England)","value":null},{"area_code":"TLL","name":"Wales","value":null},{"area_code":"TLM","name":"Scotland","value":null},{"area_code":"TLN","name":"Northern Ireland","value":null},{"area_code":"TLC","name":"North East","value":null},{"area_code":"TLD","name":"North West","value":null},{"area_code":"TLE","name":"Yorkshire and The Humber","value":null},{"area_code":"TLF","name":"East Midlands","value":null},{"area_code":"TLG","name":"West Midlands","value":null},{"area_code":"TLH","name":"East of England","value":null},{"area_code":"TLI","name":"London","value":null},{"area_code":"TLJ","name":"South East (England)","value":null},{"area_code":"TLK","name":"South West (England)","value":null},{"area_code":"TLL","name":"Wales","value":null},{"area_code":"TLM","name":"Scotland","value":null},{"area_code":"TLN","name":"Northern Ireland","value":null},{"area_code":"TLC","name":"North East","value":null},{"area_code":"TLD","name":"North West","value":null},{"area_code":"TLE","name":"Yorkshire and The Humber","value":null},{"area_code":"TLF","name":"East Midlands","value":null},{"area_code":"TLG","name":"West Midlands","value":null},{"area_code":"TLH","name":"East of England","value":null},{"area_code":"TLI","name":"London","value":null},{"area_code":"TLJ","name":"South East (England)","value":null},{"area_code":"TLK","name":"South West (England)","value":null},{"area_code":"TLL","name":"Wales","value":null},{"area_code":"TLM","name":"Scotland","value":null},{"area_code":"TLN","name":"Northern Ireland","value":null},{"area_code":"TLC","name":"North East","value":null},{"area_code":"TLD","name":"North West","value":null},{"area_code":"TLE","name":"Yorkshire and The Humber","value":null},{"area_code":"TLF","name":"East Midlands","value":null},{"area_code":"TLG","name":"West Midlands","value":null},{"area_code":"TLH","name":"East of England","value":null},{"area_code":"TLI","name":"London","value":null},{"area_code":"TLJ","name":"South East (England)","value":null},{"area_code":"TLK","name":"South West (England)","value":null},{"area_code":"TLL","name":"Wales","value":null},{"area_code":"TLM","name":"Scotland","value":null},{"area_code":"TLN","name":"Northern Ireland","value":null},{"area_code":"TLB","name":"England","value":null},{"area_code":"TLC","name":"North East","value":null},{"area_code":"TLD","name":"North West","value":null},{"area_code":"TLE","name":"Yorkshire and The Humber","value":null},{"area_code":"TLF","name":"East Midlands","value":null},{"area_code":"TLG","name":"West Midlands","value":null},{"area_code":"TLH","name":"East of England","value":null},{"area_code":"TLI","name":"London","value":null},{"area_code":"TLJ","name":"South East (England)","value":null},{"area_code":"TLK","name":"South West (England)","value":null},{"area_code":"TLL","name":"Wales","value":null},{"area_code":"TLM","name":"Scotland","value":null},{"area_code":"TLN","name":"Northern Ireland","value":null},{"area_code":"TLC","name":"North East","value":null},{"area_code":"TLD","name":"North West","value":null},{"area_code":"TLE","name":"Yorkshire and The Humber","value":null},{"area_code":"TLF","name":"East Midlands","value":null},{"area_code":"TLG","name":"West Midlands","value":null},{"area_code":"TLH","name":"East of England","value":null},{"area_code":"TLI","name":"London","value":null},{"area_code":"TLJ","name":"South East (England)","value":null},{"area_code":"TLK","name":"South West (England)","value":null},{"area_code":"TLL","name":"Wales","value":null},{"area_code":"TLM","name":"Scotland","value":null},{"area_code":"TLN","name":"Northern Ireland","value":null},{"area_code":"TLC","name":"North East","value":null},{"area_code":"TLD","name":"North West","value":null},{"area_code":"TLE","name":"Yorkshire and The Humber","value":null},{"area_code":"TLF","name":"East Midlands","value":null},{"area_code":"TLG","name":"West Midlands","value":null},{"area_code":"TLH","name":"East of England","value":null},{"area_code":"TLI","name":"London","value":null},{"area_code":"TLJ","name":"South East (England)","value":null},{"area_code":"TLK","name":"South West (England)","value":null},{"area_code":"TLL","name":"Wales","value":null},{"area_code":"TLM","name":"Scotland","value":null},{"area_code":"TLN","name":"Northern Ireland","value":null},{"area_code":"TLC","name":"North East","value":null},{"area_code":"TLD","name":"North West","value":null},{"area_code":"TLE","name":"Yorkshire and The Humber","value":null},{"area_code":"TLF","name":"East Midlands","value":null},{"area_code":"TLG","name":"West Midlands","value":null},{"area_code":"TLH","name":"East of England","value":null},{"area_code":"TLI","name":"London","value":null},{"area_code":"TLJ","name":"South East (England)","value":null},{"area_code":"TLK","name":"South West (England)","value":null},{"area_code":"TLL","name":"Wales","value":null},{"area_code":"TLM","name":"Scotland","value":null},{"area_code":"TLN","name":"Northern Ireland","value":null},{"area_code":"TLB","name":"England","value":null},{"area_code":"TLC","name":"North East","value":null},{"area_code":"TLD","name":"North West","value":null},{"area_code":"TLE","name":"Yorkshire and The Humber","value":null},{"area_code":"TLF","name":"East Midlands","value":null},{"area_code":"TLG","name":"West Midlands","value":null},{"area_code":"TLH","name":"East of England","value":null},{"area_code":"TLI","name":"London","value":null},{"area_code":"TLJ","name":"South East (England)","value":null},{"area_code":"TLK","name":"South West (England)","value":null},{"area_code":"TLL","name":"Wales","value":null},{"area_code":"TLM","name":"Scotland","value":null},{"area_code":"TLN","name":"Northern Ireland","value":null},{"area_code":"TLC","name":"North East","value":null},{"area_code":"TLD","name":"North West","value":null},{"area_code":"TLE","name":"Yorkshire and The Humber","value":null},{"area_code":"TLF","name":"East Midlands","value":null},{"area_code":"TLG","name":"West Midlands","value":null},{"area_code":"TLH","name":"East of England","value":null},{"area_code":"TLI","name":"London","value":null},{"area_code":"TLJ","name":"South East (England)","value":null},{"area_code":"TLK","name":"South West (England)","value":null},{"area_code":"TLL","name":"Wales","value":null},{"area_code":"TLM","name":"Scotland","value":null},{"area_code":"TLN","name":"Northern Ireland","value":null},{"area_code":"TLC","name":"North East","value":null},{"area_code":"TLD","name":"North West","value":null},{"area_code":"TLE","name":"Yorkshire and The Humber","value":null},{"area_code":"TLF","name":"East Midlands","value":null},{"area_code":"TLG","name":"West Midlands","value":null},{"area_code":"TLH","name":"East of England","value":null},{"area_code":"TLI","name":"London","value":null},{"area_code":"TLJ","name":"South East (England)","value":null},{"area_code":"TLK","name":"South West (England)","value":null},{"area_code":"TLL","name":"Wales","value":null},{"area_code":"TLM","name":"Scotland","value":null},{"area_code":"TLN","name":"Northern Ireland","value":null},{"area_code":"TLC","name":"North East","value":null},{"area_code":"TLD","name":"North West","value":null},{"area_code":"TLE","name":"Yorkshire and The Humber","value":null},{"area_code":"TLF","name":"East Midlands","value":null},{"area_code":"TLG","name":"West Midlands","value":null},{"area_code":"TLH","name":"East of England","value":null},{"area_code":"TLI","name":"London","value":null},{"area_code":"TLJ","name":"South East (England)","value":null},{"area_code":"TLK","name":"South West (England)","value":null},{"area_code":"TLL","name":"Wales","value":null},{"area_code":"TLM","name":"Scotland","value":null},{"area_code":"TLN","name":"Northern Ireland","value":null},{"area_code":"TLB","name":"England","value":null},{"area_code":"TLC","name":"North East","value":null},{"area_code":"TLD","name":"North West","value":null},{"area_code":"TLE","name":"Yorkshire and The Humber","value":null},{"area_code":"TLF","name":"East Midlands","value":null},{"area_code":"TLG","name":"West Midlands","value":null},{"area_code":"TLH","name":"East of England","value":null},{"area_code":"TLI","name":"London","value":null},{"area_code":"TLJ","name":"South East (England)","value":null},{"area_code":"TLK","name":"South West (England)","value":null},{"area_code":"TLL","name":"Wales","value":null},{"area_code":"TLM","name":"Scotland","value":null},{"area_code":"TLN","name":"Northern Ireland","value":null},{"area_code":"TLC","name":"North East","value":null},{"area_code":"TLD","name":"North West","value":null},{"area_code":"TLE","name":"Yorkshire and The Humber","value":null},{"area_code":"TLF","name":"East Midlands","value":null},{"area_code":"TLG","name":"West Midlands","value":null},{"area_code":"TLH","name":"East of England","value":null},{"area_code":"TLI","name":"London","value":null},{"area_code":"TLJ","name":"South East (England)","value":null},{"area_code":"TLK","name":"South West (England)","value":null},{"area_code":"TLL","name":"Wales","value":null},{"area_code":"TLM","name":"Scotland","value":null},{"area_code":"TLN","name":"Northern Ireland","value":null},{"area_code":"TLC","name":"North East","value":null},{"area_code":"TLD","name":"North West","value":null},{"area_code":"TLE","name":"Yorkshire and The Humber","value":null},{"area_code":"TLF","name":"East Midlands","value":null},{"area_code":"TLG","name":"West Midlands","value":null},{"area_code":"TLH","name":"East of England","value":null},{"area_code":"TLI","name":"London","value":null},{"area_code":"TLJ","name":"South East (England)","value":null},{"area_code":"TLK","name":"South West (England)","value":null},{"area_code":"TLL","name":"Wales","value":null},{"area_code":"TLM","name":"Scotland","value":null},{"area_code":"TLN","name":"Northern Ireland","value":null},{"area_code":"TLC","name":"North East","value":null},{"area_code":"TLD","name":"North West","value":null},{"area_code":"TLE","name":"Yorkshire and The Humber","value":null},{"area_code":"TLF","name":"East Midlands","value":null},{"area_code":"TLG","name":"West Midlands","value":null},{"area_code":"TLH","name":"East of England","value":null},{"area_code":"TLI","name":"London","value":null},{"area_code":"TLJ","name":"South East (England)","value":null},{"area_code":"TLK","name":"South West (England)","value":null},{"area_code":"TLL","name":"Wales","value":null},{"area_code":"TLM","name":"Scotland","value":null},{"area_code":"TLN","name":"Northern Ireland","value":null},{"area_code":"TLB","name":"England","value":null},{"area_code":"TLC","name":"North East","value":null},{"area_code":"TLD","name":"North West","value":null},{"area_code":"TLE","name":"Yorkshire and The Humber","value":null},{"area_code":"TLF","name":"East Midlands","value":null},{"area_code":"TLG","name":"West Midlands","value":null},{"area_code":"TLH","name":"East of England","value":null},{"area_code":"TLI","name":"London","value":null},{"area_code":"TLJ","name":"South East (England)","value":null},{"area_code":"TLK","name":"South West (England)","value":null},{"area_code":"TLL","name":"Wales","value":null},{"area_code":"TLM","name":"Scotland","value":null},{"area_code":"TLN","name":"Northern Ireland","value":null},{"area_code":"TLC","name":"North East","value":null},{"area_code":"TLD","name":"North West","value":null},{"area_code":"TLE","name":"Yorkshire and The Humber","value":null},{"area_code":"TLF","name":"East Midlands","value":null},{"area_code":"TLG","name":"West Midlands","value":null},{"area_code":"TLH","name":"East of England","value":null},{"area_code":"TLI","name":"London","value":null},{"area_code":"TLJ","name":"South East (England)","value":null},{"area_code":"TLK","name":"South West (England)","value":null},{"area_code":"TLL","name":"Wales","value":null},{"area_code":"TLM","name":"Scotland","value":null},{"area_code":"TLN","name":"Northern Ireland","value":null},{"area_code":"TLC","name":"North East","value":null},{"area_code":"TLD","name":"North West","value":null},{"area_code":"TLE","name":"Yorkshire and The Humber","value":null},{"area_code":"TLF","name":"East Midlands","value":null},{"area_code":"TLG","name":"West Midlands","value":null},{"area_code":"TLH","name":"East of England","value":null},{"area_code":"TLI","name":"London","value":null},{"area_code":"TLJ","name":"South East (England)","value":null},{"area_code":"TLK","name":"South West (England)","value":null},{"area_code":"TLL","name":"Wales","value":null},{"area_code":"TLM","name":"Scotland","value":null},{"area_code":"TLN","name":"Northern Ireland","value":null},{"area_code":"TLC","name":"North East","value":null},{"area_code":"TLD","name":"North West","value":null},{"area_code":"TLE","name":"Yorkshire and The Humber","value":null},{"area_code":"TLF","name":"East Midlands","value":null},{"area_code":"TLG","name":"West Midlands","value":null},{"area_code":"TLH","name":"East of England","value":null},{"area_code":"TLI","name":"London","value":null},{"area_code":"TLJ","name":"South East (England)","value":null},{"area_code":"TLK","name":"South West (England)","value":null},{"area_code":"TLL","name":"Wales","value":null},{"area_code":"TLM","name":"Scotland","value":null},{"area_code":"TLN","name":"Northern Ireland","value":null},{"area_code":"TLB","name":"England","value":null},{"area_code":"TLC","name":"North East","value":null},{"area_code":"TLD","name":"North West","value":null},{"area_code":"TLE","name":"Yorkshire and The Humber","value":null},{"area_code":"TLF","name":"East Midlands","value":null},{"area_code":"TLG","name":"West Midlands","value":null},{"area_code":"TLH","name":"East of England","value":null},{"area_code":"TLI","name":"London","value":null},{"area_code":"TLJ","name":"South East (England)","value":null},{"area_code":"TLK","name":"South West (England)","value":null},{"area_code":"TLL","name":"Wales","value":null},{"area_code":"TLM","name":"Scotland","value":null},{"area_code":"TLN","name":"Northern Ireland","value":null},{"area_code":"TLC","name":"North East","value":null},{"area_code":"TLD","name":"North West","value":null},{"area_code":"TLE","name":"Yorkshire and The Humber","value":null},{"area_code":"TLF","name":"East Midlands","value":null},{"area_code":"TLG","name":"West Midlands","value":null},{"area_code":"TLH","name":"East of England","value":null},{"area_code":"TLI","name":"London","value":null},{"area_code":"TLJ","name":"South East (England)","value":null},{"area_code":"TLK","name":"South West (England)","value":null},{"area_code":"TLL","name":"Wales","value":null},{"area_code":"TLM","name":"Scotland","value":null},{"area_code":"TLN","name":"Northern Ireland","value":null},{"area_code":"TLC","name":"North East","value":null},{"area_code":"TLD","name":"North West","value":null},{"area_code":"TLE","name":"Yorkshire and The Humber","value":null},{"area_code":"TLF","name":"East Midlands","value":null},{"area_code":"TLG","name":"West Midlands","value":null},{"area_code":"TLH","name":"East of England","value":null},{"area_code":"TLI","name":"London","value":null},{"area_code":"TLJ","name":"South East (England)","value":null},{"area_code":"TLK","name":"South West (England)","value":null},{"area_code":"TLL","name":"Wales","value":null},{"area_code":"TLM","name":"Scotland","value":null},{"area_code":"TLN","name":"Northern Ireland","value":null},{"area_code":"TLC","name":"North East","value":null},{"area_code":"TLD","name":"North West","value":null},{"area_code":"TLE","name":"Yorkshire and The Humber","value":null},{"area_code":"TLF","name":"East Midlands","value":null},{"area_code":"TLG","name":"West Midlands","value":null},{"area_code":"TLH","name":"East of England","value":null},{"area_code":"TLI","name":"London","value":null},{"area_code":"TLJ","name":"South East (England)","value":null},{"area_code":"TLK","name":"South West (England)","value":null},{"area_code":"TLL","name":"Wales","value":null},{"area_code":"TLM","name":"Scotland","value":null},{"area_code":"TLN","name":"Northern Ireland","value":null},{"area_code":"TLB","name":"England","value":null},{"area_code":"TLC","name":"North East","value":null},{"area_code":"TLD","name":"North West","value":null},{"area_code":"TLE","name":"Yorkshire and The Humber","value":null},{"area_code":"TLF","name":"East Midlands","value":null},{"area_code":"TLG","name":"West Midlands","value":null},{"area_code":"TLH","name":"East of England","value":null},{"area_code":"TLI","name":"London","value":null},{"area_code":"TLJ","name":"South East (England)","value":null},{"area_code":"TLK","name":"South West (England)","value":null},{"area_code":"TLL","name":"Wales","value":null},{"area_code":"TLM","name":"Scotland","value":null},{"area_code":"TLN","name":"Northern Ireland","value":null},{"area_code":"TLC","name":"North East","value":null},{"area_code":"TLD","name":"North West","value":null},{"area_code":"TLE","name":"Yorkshire and The Humber","value":null},{"area_code":"TLF","name":"East Midlands","value":null},{"area_code":"TLG","name":"West Midlands","value":null},{"area_code":"TLH","name":"East of England","value":null},{"area_code":"TLI","name":"London","value":null},{"area_code":"TLJ","name":"South East (England)","value":null},{"area_code":"TLK","name":"South West (England)","value":null},{"area_code":"TLL","name":"Wales","value":null},{"area_code":"TLM","name":"Scotland","value":null},{"area_code":"TLN","name":"Northern Ireland","value":null},{"area_code":"TLC","name":"North East","value":null},{"area_code":"TLD","name":"North West","value":null},{"area_code":"TLE","name":"Yorkshire and The Humber","value":null},{"area_code":"TLF","name":"East Midlands","value":null},{"area_code":"TLG","name":"West Midlands","value":null},{"area_code":"TLH","name":"East of England","value":null},{"area_code":"TLI","name":"London","value":null},{"area_code":"TLJ","name":"South East (England)","value":null},{"area_code":"TLK","name":"South West (England)","value":null},{"area_code":"TLL","name":"Wales","value":null},{"area_code":"TLM","name":"Scotland","value":null},{"area_code":"TLN","name":"Northern Ireland","value":null},{"area_code":"TLC","name":"North East","value":null},{"area_code":"TLD","name":"North West","value":null},{"area_code":"TLE","name":"Yorkshire and The Humber","value":null},{"area_code":"TLF","name":"East Midlands","value":null},{"area_code":"TLG","name":"West Midlands","value":null},{"area_code":"TLH","name":"East of England","value":null},{"area_code":"TLI","name":"London","value":null},{"area_code":"TLJ","name":"South East (England)","value":null},{"area_code":"TLK","name":"South West (England)","value":null},{"area_code":"TLL","name":"Wales","value":null},{"area_code":"TLM","name":"Scotland","value":null},{"area_code":"TLN","name":"Northern Ireland","value":null},{"area_code":"TLB","name":"England","value":null},{"area_code":"TLC","name":"North East","value":null},{"area_code":"TLD","name":"North West","value":null},{"area_code":"TLE","name":"Yorkshire and The Humber","value":null},{"area_code":"TLF","name":"East Midlands","value":null},{"area_code":"TLG","name":"West Midlands","value":null},{"area_code":"TLH","name":"East of England","value":null},{"area_code":"TLI","name":"London","value":null},{"area_code":"TLJ","name":"South East (England)","value":null},{"area_code":"TLK","name":"South West (England)","value":null},{"area_code":"TLL","name":"Wales","value":null},{"area_code":"TLM","name":"Scotland","value":null},{"area_code":"TLN","name":"Northern Ireland","value":null},{"area_code":"TLC","name":"North East","value":null},{"area_code":"TLD","name":"North West","value":null},{"area_code":"TLE","name":"Yorkshire and The Humber","value":null},{"area_code":"TLF","name":"East Midlands","value":null},{"area_code":"TLG","name":"West Midlands","value":null},{"area_code":"TLH","name":"East of England","value":null},{"area_code":"TLI","name":"London","value":null},{"area_code":"TLJ","name":"South East (England)","value":null},{"area_code":"TLK","name":"South West (England)","value":null},{"area_code":"TLL","name":"Wales","value":null},{"area_code":"TLM","name":"Scotland","value":null},{"area_code":"TLN","name":"Northern Ireland","value":null},{"area_code":"TLC","name":"North East","value":null},{"area_code":"TLD","name":"North West","value":null},{"area_code":"TLE","name":"Yorkshire and The Humber","value":null},{"area_code":"TLF","name":"East Midlands","value":null},{"area_code":"TLG","name":"West Midlands","value":null},{"area_code":"TLH","name":"East of England","value":null},{"area_code":"TLI","name":"London","value":null},{"area_code":"TLJ","name":"South East (England)","value":null},{"area_code":"TLK","name":"South West (England)","value":null},{"area_code":"TLL","name":"Wales","value":null},{"area_code":"TLM","name":"Scotland","value":null},{"area_code":"TLN","name":"Northern Ireland","value":null},{"area_code":"TLC","name":"North East","value":null},{"area_code":"TLD","name":"North West","value":null},{"area_code":"TLE","name":"Yorkshire and The Humber","value":null},{"area_code":"TLF","name":"East Midlands","value":null},{"area_code":"TLG","name":"West Midlands","value":null},{"area_code":"TLH","name":"East of England","value":null},{"area_code":"TLI","name":"London","value":null},{"area_code":"TLJ","name":"South East (England)","value":null},{"area_code":"TLK","name":"South West (England)","value":null},{"area_code":"TLL","name":"Wales","value":null},{"area_code":"TLM","name":"Scotland","value":null},{"area_code":"TLN","name":"Northern Ireland","value":null},{"area_code":"TLB","name":"England","value":null},{"area_code":"TLC","name":"North East","value":null},{"area_code":"TLD","name":"North West","value":null},{"area_code":"TLE","name":"Yorkshire and The Humber","value":null},{"area_code":"TLF","name":"East Midlands","value":null},{"area_code":"TLG","name":"West Midlands","value":null},{"area_code":"TLH","name":"East of England","value":null},{"area_code":"TLI","name":"London","value":null},{"area_code":"TLJ","name":"South East (England)","value":null},{"area_code":"TLK","name":"South West (England)","value":null},{"area_code":"TLL","name":"Wales","value":null},{"area_code":"TLM","name":"Scotland","value":null},{"area_code":"TLN","name":"Northern Ireland","value":null},{"area_code":"TLC","name":"North East","value":null},{"area_code":"TLD","name":"North West","value":null},{"area_code":"TLE","name":"Yorkshire and The Humber","value":null},{"area_code":"TLF","name":"East Midlands","value":null},{"area_code":"TLG","name":"West Midlands","value":null},{"area_code":"TLH","name":"East of England","value":null},{"area_code":"TLI","name":"London","value":null},{"area_code":"TLJ","name":"South East (England)","value":null},{"area_code":"TLK","name":"South West (England)","value":null},{"area_code":"TLL","name":"Wales","value":null},{"area_code":"TLM","name":"Scotland","value":null},{"area_code":"TLN","name":"Northern Ireland","value":null},{"area_code":"TLC","name":"North East","value":null},{"area_code":"TLD","name":"North West","value":null},{"area_code":"TLE","name":"Yorkshire and The Humber","value":null},{"area_code":"TLF","name":"East Midlands","value":null},{"area_code":"TLG","name":"West Midlands","value":null},{"area_code":"TLH","name":"East of England","value":null},{"area_code":"TLI","name":"London","value":null},{"area_code":"TLJ","name":"South East (England)","value":null},{"area_code":"TLK","name":"South West (England)","value":null},{"area_code":"TLL","name":"Wales","value":null},{"area_code":"TLM","name":"Scotland","value":null},{"area_code":"TLN","name":"Northern Ireland","value":null},{"area_code":"TLC","name":"North East","value":null},{"area_code":"TLD","name":"North West","value":null},{"area_code":"TLE","name":"Yorkshire and The Humber","value":null},{"area_code":"TLF","name":"East Midlands","value":null},{"area_code":"TLG","name":"West Midlands","value":null},{"area_code":"TLH","name":"East of England","value":null},{"area_code":"TLI","name":"London","value":null},{"area_code":"TLJ","name":"South East (England)","value":null},{"area_code":"TLK","name":"South West (England)","value":null},{"area_code":"TLL","name":"Wales","value":null},{"area_code":"TLM","name":"Scotland","value":null},{"area_code":"TLN","name":"Northern Ireland","value":null},{"area_code":"TLB","name":"England","value":null},{"area_code":"TLC","name":"North East","value":null},{"area_code":"TLD","name":"North West","value":null},{"area_code":"TLE","name":"Yorkshire and The Humber","value":null},{"area_code":"TLF","name":"East Midlands","value":null},{"area_code":"TLG","name":"West Midlands","value":null},{"area_code":"TLH","name":"East of England","value":null},{"area_code":"TLI","name":"London","value":null},{"area_code":"TLJ","name":"South East (England)","value":null},{"area_code":"TLK","name":"South West (England)","value":null},{"area_code":"TLL","name":"Wales","value":null},{"area_code":"TLM","name":"Scotland","value":null},{"area_code":"TLN","name":"Northern Ireland","value":null},{"area_code":"TLC","name":"North East","value":null},{"area_code":"TLD","name":"North West","value":null},{"area_code":"TLE","name":"Yorkshire and The Humber","value":null},{"area_code":"TLF","name":"East Midlands","value":null},{"area_code":"TLG","name":"West Midlands","value":null},{"area_code":"TLH","name":"East of England","value":null},{"area_code":"TLI","name":"London","value":null},{"area_code":"TLJ","name":"South East (England)","value":null},{"area_code":"TLK","name":"South West (England)","value":null},{"area_code":"TLL","name":"Wales","value":null},{"area_code":"TLM","name":"Scotland","value":null},{"area_code":"TLN","name":"Northern Ireland","value":null},{"area_code":"TLC","name":"North East","value":null},{"area_code":"TLD","name":"North West","value":null},{"area_code":"TLE","name":"Yorkshire and The Humber","value":null},{"area_code":"TLF","name":"East Midlands","value":null},{"area_code":"TLG","name":"West Midlands","value":null},{"area_code":"TLH","name":"East of England","value":null},{"area_code":"TLI","name":"London","value":null},{"area_code":"TLJ","name":"South East (England)","value":null},{"area_code":"TLK","name":"South West (England)","value":null},{"area_code":"TLL","name":"Wales","value":null},{"area_code":"TLM","name":"Scotland","value":null},{"area_code":"TLN","name":"Northern Ireland","value":null},{"area_code":"TLC","name":"North East","value":null},{"area_code":"TLD","name":"North West","value":null},{"area_code":"TLE","name":"Yorkshire and The Humber","value":null},{"area_code":"TLF","name":"East Midlands","value":null},{"area_code":"TLG","name":"West Midlands","value":null},{"area_code":"TLH","name":"East of England","value":null},{"area_code":"TLI","name":"London","value":null},{"area_code":"TLJ","name":"South East (England)","value":null},{"area_code":"TLK","name":"South West (England)","value":null},{"area_code":"TLL","name":"Wales","value":null},{"area_code":"TLM","name":"Scotland","value":null},{"area_code":"TLN","name":"Northern Ireland","value":null},{"area_code":"TLB","name":"England","value":null},{"area_code":"TLC","name":"North East","value":null},{"area_code":"TLD","name":"North West","value":null},{"area_code":"TLE","name":"Yorkshire and The Humber","value":null},{"area_code":"TLF","name":"East Midlands","value":null},{"area_code":"TLG","name":"West Midlands","value":null},{"area_code":"TLH","name":"East of England","value":null},{"area_code":"TLI","name":"London","value":null},{"area_code":"TLJ","name":"South East (England)","value":null},{"area_code":"TLK","name":"South West (England)","value":null},{"area_code":"TLL","name":"Wales","value":null},{"area_code":"TLM","name":"Scotland","value":null},{"area_code":"TLN","name":"Northern Ireland","value":null},{"area_code":"TLC","name":"North East","value":null},{"area_code":"TLD","name":"North West","value":null},{"area_code":"TLE","name":"Yorkshire and The Humber","value":null},{"area_code":"TLF","name":"East Midlands","value":null},{"area_code":"TLG","name":"West Midlands","value":null},{"area_code":"TLH","name":"East of England","value":null},{"area_code":"TLI","name":"London","value":null},{"area_code":"TLJ","name":"South East (England)","value":null},{"area_code":"TLK","name":"South West (England)","value":null},{"area_code":"TLL","name":"Wales","value":null},{"area_code":"TLM","name":"Scotland","value":null},{"area_code":"TLN","name":"Northern Ireland","value":null},{"area_code":"TLC","name":"North East","value":null},{"area_code":"TLD","name":"North West","value":null},{"area_code":"TLE","name":"Yorkshire and The Humber","value":null},{"area_code":"TLF","name":"East Midlands","value":null},{"area_code":"TLG","name":"West Midlands","value":null},{"area_code":"TLH","name":"East of England","value":null},{"area_code":"TLI","name":"London","value":null},{"area_code":"TLJ","name":"South East (England)","value":null},{"area_code":"TLK","name":"South West (England)","value":null},{"area_code":"TLL","name":"Wales","value":null},{"area_code":"TLM","name":"Scotland","value":null},{"area_code":"TLN","name":"Northern Ireland","value":null},{"area_code":"TLC","name":"North East","value":null},{"area_code":"TLD","name":"North West","value":null},{"area_code":"TLE","name":"Yorkshire and The Humber","value":null},{"area_code":"TLF","name":"East Midlands","value":null},{"area_code":"TLG","name":"West Midlands","value":null},{"area_code":"TLH","name":"East of England","value":null},{"area_code":"TLI","name":"London","value":null},{"area_code":"TLJ","name":"South East (England)","value":null},{"area_code":"TLK","name":"South West (England)","value":null},{"area_code":"TLL","name":"Wales","value":null},{"area_code":"TLM","name":"Scotland","value":null},{"area_code":"TLN","name":"Northern Ireland","value":null},{"area_code":"TLB","name":"England","value":null},{"area_code":"TLC","name":"North East","value":null},{"area_code":"TLD","name":"North West","value":null},{"area_code":"TLE","name":"Yorkshire and The Humber","value":null},{"area_code":"TLF","name":"East Midlands","value":null},{"area_code":"TLG","name":"West Midlands","value":null},{"area_code":"TLH","name":"East of England","value":null},{"area_code":"TLI","name":"London","value":null},{"area_code":"TLJ","name":"South East (England)","value":null},{"area_code":"TLK","name":"South West (England)","value":null},{"area_code":"TLL","name":"Wales","value":null},{"area_code":"TLM","name":"Scotland","value":null},{"area_code":"TLN","name":"Northern Ireland","value":null},{"area_code":"TLC","name":"North East","value":null},{"area_code":"TLD","name":"North West","value":null},{"area_code":"TLE","name":"Yorkshire and The Humber","value":null},{"area_code":"TLF","name":"East Midlands","value":null},{"area_code":"TLG","name":"West Midlands","value":null},{"area_code":"TLH","name":"East of England","value":null},{"area_code":"TLI","name":"London","value":null},{"area_code":"TLJ","name":"South East (England)","value":null},{"area_code":"TLK","name":"South West (England)","value":null},{"area_code":"TLL","name":"Wales","value":null},{"area_code":"TLM","name":"Scotland","value":null},{"area_code":"TLN","name":"Northern Ireland","value":null},{"area_code":"TLC","name":"North East","value":null},{"area_code":"TLD","name":"North West","value":null},{"area_code":"TLE","name":"Yorkshire and The Humber","value":null},{"area_code":"TLF","name":"East Midlands","value":null},{"area_code":"TLG","name":"West Midlands","value":null},{"area_code":"TLH","name":"East of England","value":null},{"area_code":"TLI","name":"London","value":null},{"area_code":"TLJ","name":"South East (England)","value":null},{"area_code":"TLK","name":"South West (England)","value":null},{"area_code":"TLL","name":"Wales","value":null},{"area_code":"TLM","name":"Scotland","value":null},{"area_code":"TLN","name":"Northern Ireland","value":null},{"area_code":"TLC","name":"North East","value":null},{"area_code":"TLD","name":"North West","value":null},{"area_code":"TLE","name":"Yorkshire and The Humber","value":null},{"area_code":"TLF","name":"East Midlands","value":null},{"area_code":"TLG","name":"West Midlands","value":null},{"area_code":"TLH","name":"East of England","value":null},{"area_code":"TLI","name":"London","value":null},{"area_code":"TLJ","name":"South East (England)","value":null},{"area_code":"TLK","name":"South West (England)","value":null},{"area_code":"TLL","name":"Wales","value":null},{"area_code":"TLM","name":"Scotland","value":null},{"area_code":"TLN","name":"Northern Ireland","value":null},{"area_code":"TLB","name":"England","value":null},{"area_code":"TLC","name":"North East","value":null},{"area_code":"TLD","name":"North West","value":null},{"area_code":"TLE","name":"Yorkshire and The Humber","value":null},{"area_code":"TLF","name":"East Midlands","value":null},{"area_code":"TLG","name":"West Midlands","value":null},{"area_code":"TLH","name":"East of England","value":null},{"area_code":"TLI","name":"London","value":null},{"area_code":"TLJ","name":"South East (England)","value":null},{"area_code":"TLK","name":"South West (England)","value":null},{"area_code":"TLL","name":"Wales","value":null},{"area_code":"TLM","name":"Scotland","value":null},{"area_code":"TLN","name":"Northern Ireland","value":null},{"area_code":"TLC","name":"North East","value":null},{"area_code":"TLD","name":"North West","value":null},{"area_code":"TLE","name":"Yorkshire and The Humber","value":null},{"area_code":"TLF","name":"East Midlands","value":null},{"area_code":"TLG","name":"West Midlands","value":null},{"area_code":"TLH","name":"East of England","value":null},{"area_code":"TLI","name":"London","value":null},{"area_code":"TLJ","name":"South East (England)","value":null},{"area_code":"TLK","name":"South West (England)","value":null},{"area_code":"TLL","name":"Wales","value":null},{"area_code":"TLM","name":"Scotland","value":null},{"area_code":"TLN","name":"Northern Ireland","value":null},{"area_code":"TLC","name":"North East","value":null},{"area_code":"TLD","name":"North West","value":null},{"area_code":"TLE","name":"Yorkshire and The Humber","value":null},{"area_code":"TLF","name":"East Midlands","value":null},{"area_code":"TLG","name":"West Midlands","value":null},{"area_code":"TLH","name":"East of England","value":null},{"area_code":"TLI","name":"London","value":null},{"area_code":"TLJ","name":"South East (England)","value":null},{"area_code":"TLK","name":"South West (England)","value":null},{"area_code":"TLL","name":"Wales","value":null},{"area_code":"TLM","name":"Scotland","value":null},{"area_code":"TLN","name":"Northern Ireland","value":null},{"area_code":"TLC","name":"North East","value":null},{"area_code":"TLD","name":"North West","value":null},{"area_code":"TLE","name":"Yorkshire and The Humber","value":null},{"area_code":"TLF","name":"East Midlands","value":null},{"area_code":"TLG","name":"West Midlands","value":null},{"area_code":"TLH","name":"East of England","value":null},{"area_code":"TLI","name":"London","value":null},{"area_code":"TLJ","name":"South East (England)","value":null},{"area_code":"TLK","name":"South West (England)","value":null},{"area_code":"TLL","name":"Wales","value":null},{"area_code":"TLM","name":"Scotland","value":null},{"area_code":"TLN","name":"Northern Ireland","value":null},{"area_code":"TLB","name":"England","value":null},{"area_code":"TLC","name":"North East","value":null},{"area_code":"TLD","name":"North West","value":null},{"area_code":"TLE","name":"Yorkshire and The Humber","value":null},{"area_code":"TLF","name":"East Midlands","value":null},{"area_code":"TLG","name":"West Midlands","value":null},{"area_code":"TLH","name":"East of England","value":null},{"area_code":"TLI","name":"London","value":null},{"area_code":"TLJ","name":"South East (England)","value":null},{"area_code":"TLK","name":"South West (England)","value":null},{"area_code":"TLL","name":"Wales","value":null},{"area_code":"TLM","name":"Scotland","value":null},{"area_code":"TLN","name":"Northern Ireland","value":null},{"area_code":"TLC","name":"North East","value":null},{"area_code":"TLD","name":"North West","value":null},{"area_code":"TLE","name":"Yorkshire and The Humber","value":null},{"area_code":"TLF","name":"East Midlands","value":null},{"area_code":"TLG","name":"West Midlands","value":null},{"area_code":"TLH","name":"East of England","value":null},{"area_code":"TLI","name":"London","value":null},{"area_code":"TLJ","name":"South East (England)","value":null},{"area_code":"TLK","name":"South West (England)","value":null},{"area_code":"TLL","name":"Wales","value":null},{"area_code":"TLM","name":"Scotland","value":null},{"area_code":"TLN","name":"Northern Ireland","value":null},{"area_code":"TLC","name":"North East","value":null},{"area_code":"TLD","name":"North West","value":null},{"area_code":"TLE","name":"Yorkshire and The Humber","value":null},{"area_code":"TLF","name":"East Midlands","value":null},{"area_code":"TLG","name":"West Midlands","value":null},{"area_code":"TLH","name":"East of England","value":null},{"area_code":"TLI","name":"London","value":null},{"area_code":"TLJ","name":"South East (England)","value":null},{"area_code":"TLK","name":"South West (England)","value":null},{"area_code":"TLL","name":"Wales","value":null},{"area_code":"TLM","name":"Scotland","value":null},{"area_code":"TLN","name":"Northern Ireland","value":null},{"area_code":"TLC","name":"North East","value":null},{"area_code":"TLD","name":"North West","value":null},{"area_code":"TLE","name":"Yorkshire and The Humber","value":null},{"area_code":"TLF","name":"East Midlands","value":null},{"area_code":"TLG","name":"West Midlands","value":null},{"area_code":"TLH","name":"East of England","value":null},{"area_code":"TLI","name":"London","value":null},{"area_code":"TLJ","name":"South East (England)","value":null},{"area_code":"TLK","name":"South West (England)","value":null},{"area_code":"TLL","name":"Wales","value":null},{"area_code":"TLM","name":"Scotland","value":null},{"area_code":"TLN","name":"Northern Ireland","value":null},{"area_code":"TLB","name":"England","value":null},{"area_code":"TLC","name":"North East","value":null},{"area_code":"TLD","name":"North West","value":null},{"area_code":"TLE","name":"Yorkshire and The Humber","value":null},{"area_code":"TLF","name":"East Midlands","value":null},{"area_code":"TLG","name":"West Midlands","value":null},{"area_code":"TLH","name":"East of England","value":null},{"area_code":"TLI","name":"London","value":null},{"area_code":"TLJ","name":"South East (England)","value":null},{"area_code":"TLK","name":"South West (England)","value":null},{"area_code":"TLL","name":"Wales","value":null},{"area_code":"TLM","name":"Scotland","value":null},{"area_code":"TLN","name":"Northern Ireland","value":null},{"area_code":"TLC","name":"North East","value":null},{"area_code":"TLD","name":"North West","value":null},{"area_code":"TLE","name":"Yorkshire and The Humber","value":null},{"area_code":"TLF","name":"East Midlands","value":null},{"area_code":"TLG","name":"West Midlands","value":null},{"area_code":"TLH","name":"East of England","value":null},{"area_code":"TLI","name":"London","value":null},{"area_code":"TLJ","name":"South East (England)","value":null},{"area_code":"TLK","name":"South West (England)","value":null},{"area_code":"TLL","name":"Wales","value":null},{"area_code":"TLM","name":"Scotland","value":null},{"area_code":"TLN","name":"Northern Ireland","value":null},{"area_code":"TLC","name":"North East","value":null},{"area_code":"TLD","name":"North West","value":null},{"area_code":"TLE","name":"Yorkshire and The Humber","value":null},{"area_code":"TLF","name":"East Midlands","value":null},{"area_code":"TLG","name":"West Midlands","value":null},{"area_code":"TLH","name":"East of England","value":null},{"area_code":"TLI","name":"London","value":null},{"area_code":"TLJ","name":"South East (England)","value":null},{"area_code":"TLK","name":"South West (England)","value":null},{"area_code":"TLL","name":"Wales","value":null},{"area_code":"TLM","name":"Scotland","value":null},{"area_code":"TLN","name":"Northern Ireland","value":null},{"area_code":"TLC","name":"North East","value":null},{"area_code":"TLD","name":"North West","value":null},{"area_code":"TLE","name":"Yorkshire and The Humber","value":null},{"area_code":"TLF","name":"East Midlands","value":null},{"area_code":"TLG","name":"West Midlands","value":null},{"area_code":"TLH","name":"East of England","value":null},{"area_code":"TLI","name":"London","value":null},{"area_code":"TLJ","name":"South East (England)","value":null},{"area_code":"TLK","name":"South West (England)","value":null},{"area_code":"TLL","name":"Wales","value":null},{"area_code":"TLM","name":"Scotland","value":null},{"area_code":"TLN","name":"Northern Ireland","value":null},{"area_code":"TLB","name":"England","value":null},{"area_code":"TLC","name":"North East","value":null},{"area_code":"TLD","name":"North West","value":null},{"area_code":"TLE","name":"Yorkshire and The Humber","value":null},{"area_code":"TLF","name":"East Midlands","value":null},{"area_code":"TLG","name":"West Midlands","value":null},{"area_code":"TLH","name":"East of England","value":null},{"area_code":"TLI","name":"London","value":null},{"area_code":"TLJ","name":"South East (England)","value":null},{"area_code":"TLK","name":"South West (England)","value":null},{"area_code":"TLL","name":"Wales","value":null},{"area_code":"TLM","name":"Scotland","value":null},{"area_code":"TLN","name":"Northern Ireland","value":null},{"area_code":"TLC","name":"North East","value":null},{"area_code":"TLD","name":"North West","value":null},{"area_code":"TLE","name":"Yorkshire and The Humber","value":null},{"area_code":"TLF","name":"East Midlands","value":null},{"area_code":"TLG","name":"West Midlands","value":null},{"area_code":"TLH","name":"East of England","value":null},{"area_code":"TLI","name":"London","value":null},{"area_code":"TLJ","name":"South East (England)","value":null},{"area_code":"TLK","name":"South West (England)","value":null},{"area_code":"TLL","name":"Wales","value":null},{"area_code":"TLM","name":"Scotland","value":null},{"area_code":"TLN","name":"Northern Ireland","value":null},{"area_code":"TLC","name":"North East","value":null},{"area_code":"TLD","name":"North West","value":null},{"area_code":"TLE","name":"Yorkshire and The Humber","value":null},{"area_code":"TLF","name":"East Midlands","value":null},{"area_code":"TLG","name":"West Midlands","value":null},{"area_code":"TLH","name":"East of England","value":null},{"area_code":"TLI","name":"London","value":null},{"area_code":"TLJ","name":"South East (England)","value":null},{"area_code":"TLK","name":"South West (England)","value":null},{"area_code":"TLL","name":"Wales","value":null},{"area_code":"TLM","name":"Scotland","value":null},{"area_code":"TLN","name":"Northern Ireland","value":null},{"area_code":"TLC","name":"North East","value":null},{"area_code":"TLD","name":"North West","value":null},{"area_code":"TLE","name":"Yorkshire and The Humber","value":null},{"area_code":"TLF","name":"East Midlands","value":null},{"area_code":"TLG","name":"West Midlands","value":null},{"area_code":"TLH","name":"East of England","value":null},{"area_code":"TLI","name":"London","value":null},{"area_code":"TLJ","name":"South East (England)","value":null},{"area_code":"TLK","name":"South West (England)","value":null},{"area_code":"TLL","name":"Wales","value":null},{"area_code":"TLM","name":"Scotland","value":null},{"area_code":"TLN","name":"Northern Ireland","value":null},{"area_code":"TLB","name":"England","value":null},{"area_code":"TLC","name":"North East","value":null},{"area_code":"TLD","name":"North West","value":null},{"area_code":"TLE","name":"Yorkshire and The Humber","value":null},{"area_code":"TLF","name":"East Midlands","value":null},{"area_code":"TLG","name":"West Midlands","value":null},{"area_code":"TLH","name":"East of England","value":null},{"area_code":"TLI","name":"London","value":null},{"area_code":"TLJ","name":"South East (England)","value":null},{"area_code":"TLK","name":"South West (England)","value":null},{"area_code":"TLL","name":"Wales","value":null},{"area_code":"TLM","name":"Scotland","value":null},{"area_code":"TLN","name":"Northern Ireland","value":null},{"area_code":"TLC","name":"North East","value":null},{"area_code":"TLD","name":"North West","value":null},{"area_code":"TLE","name":"Yorkshire and The Humber","value":null},{"area_code":"TLF","name":"East Midlands","value":null},{"area_code":"TLG","name":"West Midlands","value":null},{"area_code":"TLH","name":"East of England","value":null},{"area_code":"TLI","name":"London","value":null},{"area_code":"TLJ","name":"South East (England)","value":null},{"area_code":"TLK","name":"South West (England)","value":null},{"area_code":"TLL","name":"Wales","value":null},{"area_code":"TLM","name":"Scotland","value":null},{"area_code":"TLN","name":"Northern Ireland","value":null},{"area_code":"TLC","name":"North East","value":null},{"area_code":"TLD","name":"North West","value":null},{"area_code":"TLE","name":"Yorkshire and The Humber","value":null},{"area_code":"TLF","name":"East Midlands","value":null},{"area_code":"TLG","name":"West Midlands","value":null},{"area_code":"TLH","name":"East of England","value":null},{"area_code":"TLI","name":"London","value":null},{"area_code":"TLJ","name":"South East (England)","value":null},{"area_code":"TLK","name":"South West (England)","value":null},{"area_code":"TLL","name":"Wales","value":null},{"area_code":"TLM","name":"Scotland","value":null},{"area_code":"TLN","name":"Northern Ireland","value":null},{"area_code":"TLC","name":"North East","value":null},{"area_code":"TLD","name":"North West","value":null},{"area_code":"TLE","name":"Yorkshire and The Humber","value":null},{"area_code":"TLF","name":"East Midlands","value":null},{"area_code":"TLG","name":"West Midlands","value":null},{"area_code":"TLH","name":"East of England","value":null},{"area_code":"TLI","name":"London","value":null},{"area_code":"TLJ","name":"South East (England)","value":null},{"area_code":"TLK","name":"South West (England)","value":null},{"area_code":"TLL","name":"Wales","value":null},{"area_code":"TLM","name":"Scotland","value":null},{"area_code":"TLN","name":"Northern Ireland","value":null},{"area_code":"TLB","name":"England","value":null},{"area_code":"TLC","name":"North East","value":null},{"area_code":"TLD","name":"North West","value":null},{"area_code":"TLE","name":"Yorkshire and The Humber","value":null},{"area_code":"TLF","name":"East Midlands","value":null},{"area_code":"TLG","name":"West Midlands","value":null},{"area_code":"TLH","name":"East of England","value":null},{"area_code":"TLI","name":"London","value":null},{"area_code":"TLJ","name":"South East (England)","value":null},{"area_code":"TLK","name":"South West (England)","value":null},{"area_code":"TLL","name":"Wales","value":null},{"area_code":"TLM","name":"Scotland","value":null},{"area_code":"TLN","name":"Northern Ireland","value":null},{"area_code":"TLC","name":"North East","value":null},{"area_code":"TLD","name":"North West","value":null},{"area_code":"TLE","name":"Yorkshire and The Humber","value":null},{"area_code":"TLF","name":"East Midlands","value":null},{"area_code":"TLG","name":"West Midlands","value":null},{"area_code":"TLH","name":"East of England","value":null},{"area_code":"TLI","name":"London","value":null},{"area_code":"TLJ","name":"South East (England)","value":null},{"area_code":"TLK","name":"South West (England)","value":null},{"area_code":"TLL","name":"Wales","value":null},{"area_code":"TLM","name":"Scotland","value":null},{"area_code":"TLN","name":"Northern Ireland","value":null},{"area_code":"TLC","name":"North East","value":null},{"area_code":"TLD","name":"North West","value":null},{"area_code":"TLE","name":"Yorkshire and The Humber","value":null},{"area_code":"TLF","name":"East Midlands","value":null},{"area_code":"TLG","name":"West Midlands","value":null},{"area_code":"TLH","name":"East of England","value":null},{"area_code":"TLI","name":"London","value":null},{"area_code":"TLJ","name":"South East (England)","value":null},{"area_code":"TLK","name":"South West (England)","value":null},{"area_code":"TLL","name":"Wales","value":null},{"area_code":"TLM","name":"Scotland","value":null},{"area_code":"TLN","name":"Northern Ireland","value":null},{"area_code":"TLC","name":"North East","value":null},{"area_code":"TLD","name":"North West","value":null},{"area_code":"TLE","name":"Yorkshire and The Humber","value":null},{"area_code":"TLF","name":"East Midlands","value":null},{"area_code":"TLG","name":"West Midlands","value":null},{"area_code":"TLH","name":"East of England","value":null},{"area_code":"TLI","name":"London","value":null},{"area_code":"TLJ","name":"South East (England)","value":null},{"area_code":"TLK","name":"South West (England)","value":null},{"area_code":"TLL","name":"Wales","value":null},{"area_code":"TLM","name":"Scotland","value":null},{"area_code":"TLN","name":"Northern Ireland","value":null},{"area_code":"TLB","name":"England","value":null},{"area_code":"TLC","name":"North East","value":null},{"area_code":"TLD","name":"North West","value":null},{"area_code":"TLE","name":"Yorkshire and The Humber","value":null},{"area_code":"TLF","name":"East Midlands","value":null},{"area_code":"TLG","name":"West Midlands","value":null},{"area_code":"TLH","name":"East of England","value":null},{"area_code":"TLI","name":"London","value":null},{"area_code":"TLJ","name":"South East (England)","value":null},{"area_code":"TLK","name":"South West (England)","value":null},{"area_code":"TLL","name":"Wales","value":null},{"area_code":"TLM","name":"Scotland","value":null},{"area_code":"TLN","name":"Northern Ireland","value":null},{"area_code":"TLC","name":"North East","value":null},{"area_code":"TLD","name":"North West","value":null},{"area_code":"TLE","name":"Yorkshire and The Humber","value":null},{"area_code":"TLF","name":"East Midlands","value":null},{"area_code":"TLG","name":"West Midlands","value":null},{"area_code":"TLH","name":"East of England","value":null},{"area_code":"TLI","name":"London","value":null},{"area_code":"TLJ","name":"South East (England)","value":null},{"area_code":"TLK","name":"South West (England)","value":null},{"area_code":"TLL","name":"Wales","value":null},{"area_code":"TLM","name":"Scotland","value":null},{"area_code":"TLN","name":"Northern Ireland","value":null},{"area_code":"TLC","name":"North East","value":null},{"area_code":"TLD","name":"North West","value":null},{"area_code":"TLE","name":"Yorkshire and The Humber","value":null},{"area_code":"TLF","name":"East Midlands","value":null},{"area_code":"TLG","name":"West Midlands","value":null},{"area_code":"TLH","name":"East of England","value":null},{"area_code":"TLI","name":"London","value":null},{"area_code":"TLJ","name":"South East (England)","value":null},{"area_code":"TLK","name":"South West (England)","value":null},{"area_code":"TLL","name":"Wales","value":null},{"area_code":"TLM","name":"Scotland","value":null},{"area_code":"TLN","name":"Northern Ireland","value":null},{"area_code":"TLC","name":"North East","value":null},{"area_code":"TLD","name":"North West","value":null},{"area_code":"TLE","name":"Yorkshire and The Humber","value":null},{"area_code":"TLF","name":"East Midlands","value":null},{"area_code":"TLG","name":"West Midlands","value":null},{"area_code":"TLH","name":"East of England","value":null},{"area_code":"TLI","name":"London","value":null},{"area_code":"TLJ","name":"South East (England)","value":null},{"area_code":"TLK","name":"South West (England)","value":null},{"area_code":"TLL","name":"Wales","value":null},{"area_code":"TLM","name":"Scotland","value":null},{"area_code":"TLN","name":"Northern Ireland","value":null},{"area_code":"TLB","name":"England","value":null},{"area_code":"TLC","name":"North East","value":null},{"area_code":"TLD","name":"North West","value":null},{"area_code":"TLE","name":"Yorkshire and The Humber","value":null},{"area_code":"TLF","name":"East Midlands","value":null},{"area_code":"TLG","name":"West Midlands","value":null},{"area_code":"TLH","name":"East of England","value":null},{"area_code":"TLI","name":"London","value":null},{"area_code":"TLJ","name":"South East (England)","value":null},{"area_code":"TLK","name":"South West (England)","value":null},{"area_code":"TLL","name":"Wales","value":null},{"area_code":"TLM","name":"Scotland","value":null},{"area_code":"TLN","name":"Northern Ireland","value":null},{"area_code":"TLC","name":"North East","value":null},{"area_code":"TLD","name":"North West","value":null},{"area_code":"TLE","name":"Yorkshire and The Humber","value":null},{"area_code":"TLF","name":"East Midlands","value":null},{"area_code":"TLG","name":"West Midlands","value":null},{"area_code":"TLH","name":"East of England","value":null},{"area_code":"TLI","name":"London","value":null},{"area_code":"TLJ","name":"South East (England)","value":null},{"area_code":"TLK","name":"South West (England)","value":null},{"area_code":"TLL","name":"Wales","value":null},{"area_code":"TLM","name":"Scotland","value":null},{"area_code":"TLN","name":"Northern Ireland","value":null},{"area_code":"TLC","name":"North East","value":null},{"area_code":"TLD","name":"North West","value":null},{"area_code":"TLE","name":"Yorkshire and The Humber","value":null},{"area_code":"TLF","name":"East Midlands","value":null},{"area_code":"TLG","name":"West Midlands","value":null},{"area_code":"TLH","name":"East of England","value":null},{"area_code":"TLI","name":"London","value":null},{"area_code":"TLJ","name":"South East (England)","value":null},{"area_code":"TLK","name":"South West (England)","value":null},{"area_code":"TLL","name":"Wales","value":null},{"area_code":"TLM","name":"Scotland","value":null},{"area_code":"TLN","name":"Northern Ireland","value":null},{"area_code":"TLC","name":"North East","value":null},{"area_code":"TLD","name":"North West","value":null},{"area_code":"TLE","name":"Yorkshire and The Humber","value":null},{"area_code":"TLF","name":"East Midlands","value":null},{"area_code":"TLG","name":"West Midlands","value":null},{"area_code":"TLH","name":"East of England","value":null},{"area_code":"TLI","name":"London","value":null},{"area_code":"TLJ","name":"South East (England)","value":null},{"area_code":"TLK","name":"South West (England)","value":null},{"area_code":"TLL","name":"Wales","value":null},{"area_code":"TLM","name":"Scotland","value":null},{"area_code":"TLN","name":"Northern Ireland","value":null},{"area_code":"TLB","name":"England","value":null},{"area_code":"TLC","name":"North East","value":null},{"area_code":"TLD","name":"North West","value":null},{"area_code":"TLE","name":"Yorkshire and The Humber","value":null},{"area_code":"TLF","name":"East Midlands","value":null},{"area_code":"TLG","name":"West Midlands","value":null},{"area_code":"TLH","name":"East of England","value":null},{"area_code":"TLI","name":"London","value":null},{"area_code":"TLJ","name":"South East (England)","value":null},{"area_code":"TLK","name":"South West (England)","value":null},{"area_code":"TLL","name":"Wales","value":null},{"area_code":"TLM","name":"Scotland","value":null},{"area_code":"TLN","name":"Northern Ireland","value":null},{"area_code":"TLC","name":"North East","value":null},{"area_code":"TLD","name":"North West","value":null},{"area_code":"TLE","name":"Yorkshire and The Humber","value":null},{"area_code":"TLF","name":"East Midlands","value":null},{"area_code":"TLG","name":"West Midlands","value":null},{"area_code":"TLH","name":"East of England","value":null},{"area_code":"TLI","name":"London","value":null},{"area_code":"TLJ","name":"South East (England)","value":null},{"area_code":"TLK","name":"South West (England)","value":null},{"area_code":"TLL","name":"Wales","value":null},{"area_code":"TLM","name":"Scotland","value":null},{"area_code":"TLN","name":"Northern Ireland","value":null},{"area_code":"TLC","name":"North East","value":null},{"area_code":"TLD","name":"North West","value":null},{"area_code":"TLE","name":"Yorkshire and The Humber","value":null},{"area_code":"TLF","name":"East Midlands","value":null},{"area_code":"TLG","name":"West Midlands","value":null},{"area_code":"TLH","name":"East of England","value":null},{"area_code":"TLI","name":"London","value":null},{"area_code":"TLJ","name":"South East (England)","value":null},{"area_code":"TLK","name":"South West (England)","value":null},{"area_code":"TLL","name":"Wales","value":null},{"area_code":"TLM","name":"Scotland","value":null},{"area_code":"TLN","name":"Northern Ireland","value":null},{"area_code":"TLC","name":"North East","value":null},{"area_code":"TLD","name":"North West","value":null},{"area_code":"TLE","name":"Yorkshire and The Humber","value":null},{"area_code":"TLF","name":"East Midlands","value":null},{"area_code":"TLG","name":"West Midlands","value":null},{"area_code":"TLH","name":"East of England","value":null},{"area_code":"TLI","name":"London","value":null},{"area_code":"TLJ","name":"South East (England)","value":null},{"area_code":"TLK","name":"South West (England)","value":null},{"area_code":"TLL","name":"Wales","value":null},{"area_code":"TLM","name":"Scotland","value":null},{"area_code":"TLN","name":"Northern Ireland","value":null},{"area_code":"TLB","name":"England","value":null},{"area_code":"TLC","name":"North East","value":null},{"area_code":"TLD","name":"North West","value":null},{"area_code":"TLE","name":"Yorkshire and The Humber","value":null},{"area_code":"TLF","name":"East Midlands","value":null},{"area_code":"TLG","name":"West Midlands","value":null},{"area_code":"TLH","name":"East of England","value":null},{"area_code":"TLI","name":"London","value":null},{"area_code":"TLJ","name":"South East (England)","value":null},{"area_code":"TLK","name":"South West (England)","value":null},{"area_code":"TLL","name":"Wales","value":null},{"area_code":"TLM","name":"Scotland","value":null},{"area_code":"TLN","name":"Northern Ireland","value":null},{"area_code":"TLC","name":"North East","value":null},{"area_code":"TLD","name":"North West","value":null},{"area_code":"TLE","name":"Yorkshire and The Humber","value":null},{"area_code":"TLF","name":"East Midlands","value":null},{"area_code":"TLG","name":"West Midlands","value":null},{"area_code":"TLH","name":"East of England","value":null},{"area_code":"TLI","name":"London","value":null},{"area_code":"TLJ","name":"South East (England)","value":null},{"area_code":"TLK","name":"South West (England)","value":null},{"area_code":"TLL","name":"Wales","value":null},{"area_code":"TLM","name":"Scotland","value":null},{"area_code":"TLN","name":"Northern Ireland","value":null},{"area_code":"TLC","name":"North East","value":null},{"area_code":"TLD","name":"North West","value":null},{"area_code":"TLE","name":"Yorkshire and The Humber","value":null},{"area_code":"TLF","name":"East Midlands","value":null},{"area_code":"TLG","name":"West Midlands","value":null},{"area_code":"TLH","name":"East of England","value":null},{"area_code":"TLI","name":"London","value":null},{"area_code":"TLJ","name":"South East (England)","value":null},{"area_code":"TLK","name":"South West (England)","value":null},{"area_code":"TLL","name":"Wales","value":null},{"area_code":"TLM","name":"Scotland","value":null},{"area_code":"TLN","name":"Northern Ireland","value":null},{"area_code":"TLC","name":"North East","value":null},{"area_code":"TLD","name":"North West","value":null},{"area_code":"TLE","name":"Yorkshire and The Humber","value":null},{"area_code":"TLF","name":"East Midlands","value":null},{"area_code":"TLG","name":"West Midlands","value":null},{"area_code":"TLH","name":"East of England","value":null},{"area_code":"TLI","name":"London","value":null},{"area_code":"TLJ","name":"South East (England)","value":null},{"area_code":"TLK","name":"South West (England)","value":null},{"area_code":"TLL","name":"Wales","value":null},{"area_code":"TLM","name":"Scotland","value":null},{"area_code":"TLN","name":"Northern Ireland","value":null},{"area_code":"TLB","name":"England","value":null},{"area_code":"TLC","name":"North East","value":null},{"area_code":"TLD","name":"North West","value":null},{"area_code":"TLE","name":"Yorkshire and The Humber","value":null},{"area_code":"TLF","name":"East Midlands","value":null},{"area_code":"TLG","name":"West Midlands","value":null},{"area_code":"TLH","name":"East of England","value":null},{"area_code":"TLI","name":"London","value":null},{"area_code":"TLJ","name":"South East (England)","value":null},{"area_code":"TLK","name":"South West (England)","value":null},{"area_code":"TLL","name":"Wales","value":null},{"area_code":"TLM","name":"Scotland","value":null},{"area_code":"TLN","name":"Northern Ireland","value":null},{"area_code":"TLC","name":"North East","value":null},{"area_code":"TLD","name":"North West","value":null},{"area_code":"TLE","name":"Yorkshire and The Humber","value":null},{"area_code":"TLF","name":"East Midlands","value":null},{"area_code":"TLG","name":"West Midlands","value":null},{"area_code":"TLH","name":"East of England","value":null},{"area_code":"TLI","name":"London","value":null},{"area_code":"TLJ","name":"South East (England)","value":null},{"area_code":"TLK","name":"South West (England)","value":null},{"area_code":"TLL","name":"Wales","value":null},{"area_code":"TLM","name":"Scotland","value":null},{"area_code":"TLN","name":"Northern Ireland","value":null},{"area_code":"TLC","name":"North East","value":null},{"area_code":"TLD","name":"North West","value":null},{"area_code":"TLE","name":"Yorkshire and The Humber","value":null},{"area_code":"TLF","name":"East Midlands","value":null},{"area_code":"TLG","name":"West Midlands","value":null},{"area_code":"TLH","name":"East of England","value":null},{"area_code":"TLI","name":"London","value":null},{"area_code":"TLJ","name":"South East (England)","value":null},{"area_code":"TLK","name":"South West (England)","value":null},{"area_code":"TLL","name":"Wales","value":null},{"area_code":"TLM","name":"Scotland","value":null},{"area_code":"TLN","name":"Northern Ireland","value":null},{"area_code":"TLC","name":"North East","value":null},{"area_code":"TLD","name":"North West","value":null},{"area_code":"TLE","name":"Yorkshire and The Humber","value":null},{"area_code":"TLF","name":"East Midlands","value":null},{"area_code":"TLG","name":"West Midlands","value":null},{"area_code":"TLH","name":"East of England","value":null},{"area_code":"TLI","name":"London","value":null},{"area_code":"TLJ","name":"South East (England)","value":null},{"area_code":"TLK","name":"South West (England)","value":null},{"area_code":"TLL","name":"Wales","value":null},{"area_code":"TLM","name":"Scotland","value":null},{"area_code":"TLN","name":"Northern Ireland","value":null},{"area_code":"TLB","name":"England","value":null},{"area_code":"TLC","name":"North East","value":null},{"area_code":"TLD","name":"North West","value":null},{"area_code":"TLE","name":"Yorkshire and The Humber","value":null},{"area_code":"TLF","name":"East Midlands","value":null},{"area_code":"TLG","name":"West Midlands","value":null},{"area_code":"TLH","name":"East of England","value":null},{"area_code":"TLI","name":"London","value":null},{"area_code":"TLJ","name":"South East (England)","value":null},{"area_code":"TLK","name":"South West (England)","value":null},{"area_code":"TLL","name":"Wales","value":null},{"area_code":"TLM","name":"Scotland","value":null},{"area_code":"TLN","name":"Northern Ireland","value":null},{"area_code":"TLC","name":"North East","value":null},{"area_code":"TLD","name":"North West","value":null},{"area_code":"TLE","name":"Yorkshire and The Humber","value":null},{"area_code":"TLF","name":"East Midlands","value":null},{"area_code":"TLG","name":"West Midlands","value":null},{"area_code":"TLH","name":"East of England","value":null},{"area_code":"TLI","name":"London","value":null},{"area_code":"TLJ","name":"South East (England)","value":null},{"area_code":"TLK","name":"South West (England)","value":null},{"area_code":"TLL","name":"Wales","value":null},{"area_code":"TLM","name":"Scotland","value":null},{"area_code":"TLN","name":"Northern Ireland","value":null},{"area_code":"TLC","name":"North East","value":null},{"area_code":"TLD","name":"North West","value":null},{"area_code":"TLE","name":"Yorkshire and The Humber","value":null},{"area_code":"TLF","name":"East Midlands","value":null},{"area_code":"TLG","name":"West Midlands","value":null},{"area_code":"TLH","name":"East of England","value":null},{"area_code":"TLI","name":"London","value":null},{"area_code":"TLJ","name":"South East (England)","value":null},{"area_code":"TLK","name":"South West (England)","value":null},{"area_code":"TLL","name":"Wales","value":null},{"area_code":"TLM","name":"Scotland","value":null},{"area_code":"TLN","name":"Northern Ireland","value":null},{"area_code":"TLC","name":"North East","value":null},{"area_code":"TLD","name":"North West","value":null},{"area_code":"TLE","name":"Yorkshire and The Humber","value":null},{"area_code":"TLF","name":"East Midlands","value":null},{"area_code":"TLG","name":"West Midlands","value":null},{"area_code":"TLH","name":"East of England","value":null},{"area_code":"TLI","name":"London","value":null},{"area_code":"TLJ","name":"South East (England)","value":null},{"area_code":"TLK","name":"South West (England)","value":null},{"area_code":"TLL","name":"Wales","value":null},{"area_code":"TLM","name":"Scotland","value":null},{"area_code":"TLN","name":"Northern Ireland","value":null},{"area_code":"TLB","name":"England","value":null},{"area_code":"TLC","name":"North East","value":null},{"area_code":"TLD","name":"North West","value":null},{"area_code":"TLE","name":"Yorkshire and The Humber","value":null},{"area_code":"TLF","name":"East Midlands","value":null},{"area_code":"TLG","name":"West Midlands","value":null},{"area_code":"TLH","name":"East of England","value":null},{"area_code":"TLI","name":"London","value":null},{"area_code":"TLJ","name":"South East (England)","value":null},{"area_code":"TLK","name":"South West (England)","value":null},{"area_code":"TLL","name":"Wales","value":null},{"area_code":"TLM","name":"Scotland","value":null},{"area_code":"TLN","name":"Northern Ireland","value":null},{"area_code":"TLC","name":"North East","value":null},{"area_code":"TLD","name":"North West","value":null},{"area_code":"TLE","name":"Yorkshire and The Humber","value":null},{"area_code":"TLF","name":"East Midlands","value":null},{"area_code":"TLG","name":"West Midlands","value":null},{"area_code":"TLH","name":"East of England","value":null},{"area_code":"TLI","name":"London","value":null},{"area_code":"TLJ","name":"South East (England)","value":null},{"area_code":"TLK","name":"South West (England)","value":null},{"area_code":"TLL","name":"Wales","value":null},{"area_code":"TLM","name":"Scotland","value":null},{"area_code":"TLN","name":"Northern Ireland","value":null},{"area_code":"TLC","name":"North East","value":null},{"area_code":"TLD","name":"North West","value":null},{"area_code":"TLE","name":"Yorkshire and The Humber","value":null},{"area_code":"TLF","name":"East Midlands","value":null},{"area_code":"TLG","name":"West Midlands","value":null},{"area_code":"TLH","name":"East of England","value":null},{"area_code":"TLI","name":"London","value":null},{"area_code":"TLJ","name":"South East (England)","value":null},{"area_code":"TLK","name":"South West (England)","value":null},{"area_code":"TLL","name":"Wales","value":null},{"area_code":"TLM","name":"Scotland","value":null},{"area_code":"TLN","name":"Northern Ireland","value":null},{"area_code":"TLC","name":"North East","value":null},{"area_code":"TLD","name":"North West","value":null},{"area_code":"TLE","name":"Yorkshire and The Humber","value":null},{"area_code":"TLF","name":"East Midlands","value":null},{"area_code":"TLG","name":"West Midlands","value":null},{"area_code":"TLH","name":"East of England","value":null},{"area_code":"TLI","name":"London","value":null},{"area_code":"TLJ","name":"South East (England)","value":null},{"area_code":"TLK","name":"South West (England)","value":null},{"area_code":"TLL","name":"Wales","value":null},{"area_code":"TLM","name":"Scotland","value":null},{"area_code":"TLN","name":"Northern Ireland","value":null},{"area_code":"TLB","name":"England","value":null},{"area_code":"TLC","name":"North East","value":null},{"area_code":"TLD","name":"North West","value":null},{"area_code":"TLE","name":"Yorkshire and The Humber","value":null},{"area_code":"TLF","name":"East Midlands","value":null},{"area_code":"TLG","name":"West Midlands","value":null},{"area_code":"TLH","name":"East of England","value":null},{"area_code":"TLI","name":"London","value":null},{"area_code":"TLJ","name":"South East (England)","value":null},{"area_code":"TLK","name":"South West (England)","value":null},{"area_code":"TLL","name":"Wales","value":null},{"area_code":"TLM","name":"Scotland","value":null},{"area_code":"TLN","name":"Northern Ireland","value":null},{"area_code":"TLC","name":"North East","value":null},{"area_code":"TLD","name":"North West","value":null},{"area_code":"TLE","name":"Yorkshire and The Humber","value":null},{"area_code":"TLF","name":"East Midlands","value":null},{"area_code":"TLG","name":"West Midlands","value":null},{"area_code":"TLH","name":"East of England","value":null},{"area_code":"TLI","name":"London","value":null},{"area_code":"TLJ","name":"South East (England)","value":null},{"area_code":"TLK","name":"South West (England)","value":null},{"area_code":"TLL","name":"Wales","value":null},{"area_code":"TLM","name":"Scotland","value":null},{"area_code":"TLN","name":"Northern Ireland","value":null},{"area_code":"TLC","name":"North East","value":null},{"area_code":"TLD","name":"North West","value":null},{"area_code":"TLE","name":"Yorkshire and The Humber","value":null},{"area_code":"TLF","name":"East Midlands","value":null},{"area_code":"TLG","name":"West Midlands","value":null},{"area_code":"TLH","name":"East of England","value":null},{"area_code":"TLI","name":"London","value":null},{"area_code":"TLJ","name":"South East (England)","value":null},{"area_code":"TLK","name":"South West (England)","value":null},{"area_code":"TLL","name":"Wales","value":null},{"area_code":"TLM","name":"Scotland","value":null},{"area_code":"TLN","name":"Northern Ireland","value":null},{"area_code":"TLC","name":"North East","value":null},{"area_code":"TLD","name":"North West","value":null},{"area_code":"TLE","name":"Yorkshire and The Humber","value":null},{"area_code":"TLF","name":"East Midlands","value":null},{"area_code":"TLG","name":"West Midlands","value":null},{"area_code":"TLH","name":"East of England","value":null},{"area_code":"TLI","name":"London","value":null},{"area_code":"TLJ","name":"South East (England)","value":null},{"area_code":"TLK","name":"South West (England)","value":null},{"area_code":"TLL","name":"Wales","value":null},{"area_code":"TLM","name":"Scotland","value":null},{"area_code":"TLN","name":"Northern Ireland","value":null},{"area_code":"TLB","name":"England","value":null},{"area_code":"TLC","name":"North East","value":null},{"area_code":"TLD","name":"North West","value":null},{"area_code":"TLE","name":"Yorkshire and The Humber","value":null},{"area_code":"TLF","name":"East Midlands","value":null},{"area_code":"TLG","name":"West Midlands","value":null},{"area_code":"TLH","name":"East of England","value":null},{"area_code":"TLI","name":"London","value":null},{"area_code":"TLJ","name":"South East (England)","value":null},{"area_code":"TLK","name":"South West (England)","value":null},{"area_code":"TLL","name":"Wales","value":null},{"area_code":"TLM","name":"Scotland","value":null},{"area_code":"TLN","name":"Northern Ireland","value":null},{"area_code":"TLC","name":"North East","value":null},{"area_code":"TLD","name":"North West","value":null},{"area_code":"TLE","name":"Yorkshire and The Humber","value":null},{"area_code":"TLF","name":"East Midlands","value":null},{"area_code":"TLG","name":"West Midlands","value":null},{"area_code":"TLH","name":"East of England","value":null},{"area_code":"TLI","name":"London","value":null},{"area_code":"TLJ","name":"South East (England)","value":null},{"area_code":"TLK","name":"South West (England)","value":null},{"area_code":"TLL","name":"Wales","value":null},{"area_code":"TLM","name":"Scotland","value":null},{"area_code":"TLN","name":"Northern Ireland","value":null},{"area_code":"TLC","name":"North East","value":null},{"area_code":"TLD","name":"North West","value":null},{"area_code":"TLE","name":"Yorkshire and The Humber","value":null},{"area_code":"TLF","name":"East Midlands","value":null},{"area_code":"TLG","name":"West Midlands","value":null},{"area_code":"TLH","name":"East of England","value":null},{"area_code":"TLI","name":"London","value":null},{"area_code":"TLJ","name":"South East (England)","value":null},{"area_code":"TLK","name":"South West (England)","value":null},{"area_code":"TLL","name":"Wales","value":null},{"area_code":"TLM","name":"Scotland","value":null},{"area_code":"TLN","name":"Northern Ireland","value":null},{"area_code":"TLC","name":"North East","value":null},{"area_code":"TLD","name":"North West","value":null},{"area_code":"TLE","name":"Yorkshire and The Humber","value":null},{"area_code":"TLF","name":"East Midlands","value":null},{"area_code":"TLG","name":"West Midlands","value":null},{"area_code":"TLH","name":"East of England","value":null},{"area_code":"TLI","name":"London","value":null},{"area_code":"TLJ","name":"South East (England)","value":null},{"area_code":"TLK","name":"South West (England)","value":null},{"area_code":"TLL","name":"Wales","value":null},{"area_code":"TLM","name":"Scotland","value":null},{"area_code":"TLN","name":"Northern Ireland","value":null}]